NCESDistrict,Trimmed District,District Name,Zip,Latitude,Longitude,City,State,ZipTrimmed
0691051,691051,Alameda County Office of Education,94544-1136,37.658212,-122.09713,Hayward,California,94544
0600002,600002,California School for the Blind (State Special Schl),94536-4365,37.562576,-121.96563,Fremont,California,94536
0600003,600003,California School for the Deaf-Fremont (State Special Schl),94538-2308,37.558956,-121.96551,Fremont,California,94538
0601397,601397,Mission Valley ROC/P,94244,No Data,No Data,Sacramento,California,94244
0601770,601770,Alameda Unified,94501-1037,37.782147,-122.27009,Alameda,California,94501
0601860,601860,Albany City Unified,94706-1725,37.890302,-122.29575,Albany,California,94706
No Data,o Data,Amador Valley Joint Union High,94566,No Data,No Data,Pleasanton,California,94566
0604740,604740,Berkeley Unified,94702-1793,37.869454,-122.28747,Berkeley,California,94702
0607800,607800,Castro Valley Unified,94546-0146,37.707693,-122.07038,Castro Valley,California,94546
0612630,612630,Emery Unified,94608-3035,37.836319,-122.28185,Emeryville,California,94608
0614400,614400,Fremont Unified,94538-6337,37.507800,-121.95443,Fremont,California,94538
0616740,616740,Hayward Unified,94544-1301,37.656838,-122.09337,Hayward,California,94544
0622110,622110,Livermore Valley Joint Unified,94551-1899,37.689031,-121.79177,Livermore,California,94551
0626130,626130,Mountain House Elementary,94514-1920,37.787242,-121.57729,Byron,California,94514
0627060,627060,Newark Unified,94560-0385,37.542383,-122.03158,Newark,California,94560
0626910,626910,New Haven Unified,94587-4402,37.588425,-122.02531,Union City,California,94587
0628050,628050,Oakland Unified,94607-4099,37.807928,-122.28988,Oakland,California,94607
0630330,630330,Piedmont City Unified,94611-4047,37.823082,-122.23371,Piedmont,California,94611
0634680,634680,San Leandro Unified,94577-3767,37.728671,-122.15932,San Leandro,California,94577
0634710,634710,San Lorenzo Unified,94580-1641,37.689222,-122.12875,San Lorenzo,California,94580
0600084,600084,Tri-Valley ROP,94550-5543,37.669154,-121.77428,Livermore,California,94550
0600085,600085,Eden Area ROP,94545,37.634543,-122.09874,Hayward,California,94545
0600086,600086,Mission Valley ROC/P,94244,No Data,No Data,Sacramento,California,94244
0600088,600088,East Bay Regional Occupational Agency (ROP),94606,37.796352,-122.25857,Oakland,California,94606
0600019,600019,Dublin Unified,94568-1500,37.716285,-121.93066,Dublin,California,94568
0600020,600020,Pleasanton Unified,94588-4083,37.685125,-121.89264,Pleasanton,California,94588
0600021,600021,Sunol Glen Unified,94586-9519,37.592963,-121.88482,Sunol,California,94586
0600070,600070,State Board of Education Charter,95814,No Data,No Data,Sacramento,California,95814
0600151,600151,SBE - Livermore Valley Charter,94551,37.691041,-121.77055,Livermore,California,94551
0600152,600152,SBE - Leadership Public Schools - Hayward,94545,No Data,No Data,Hayward,California,94545
0601344,601344,SBE - Livermore Valley Charter Preparatory High,94551-1756,37.691041,-121.77055,Livermore,California,94551
0691058,691058,Alpine County Office of Education,96120-9522,38.766195,-119.80692,Markleeville,California,96120
0602070,602070,Alpine County Unified,96120-9522,38.766195,-119.80692,Markleeville,California,96120
0691001,691001,Amador County Office of Education,95642-2020,38.352665,-120.77703,Jackson,California,95642
0600050,600050,CEA Amador Co,95640,No Data,No Data,Ione,California,95640
0602450,602450,Amador County Unified,95642-2020,38.352665,-120.77703,Jackson,California,95642
0600089,600089,Amador County ROP,95642,38.353148,-120.77869,Jackson,California,95642
0691002,691002,Butte County Office of Education,95965-4854,39.512653,-121.55663,Oroville,California,95965
0603780,603780,Bangor Union Elementary,95914-0340,39.390904,-121.40740,Bangor,California,95914
0605040,605040,Biggs Unified,95917-9732,39.414988,-121.70380,Biggs,California,95917
0608370,608370,Chico Unified,95928-5903,39.733630,-121.82581,Chico,California,95928
0611730,611730,Durham Unified,95938-9426,39.646044,-121.80292,Durham,California,95938
0613710,613710,Feather Falls Union Elementary,95966-8887,39.593033,-121.25210,Oroville,California,95966
0615480,615480,Golden Feather Union Elementary,95965-8033,39.650509,-121.56284,Oroville,California,95965
0623700,623700,Manzanita Elementary,95948-9736,39.334408,-121.65863,Gridley,California,95948
0629100,629100,Oroville City Elementary,95966-5113,39.513224,-121.54591,Oroville,California,95966
0629130,629130,Oroville Union High,95966-5440,39.509368,-121.54714,Oroville,California,95966
0629540,629540,Palermo Union Elementary,95968-9700,39.435403,-121.54617,Palermo,California,95968
0629820,629820,Paradise Unified,95969-2834,39.778644,-121.58930,Paradise,California,95969
0639180,639180,Thermalito Union Elementary,95965-4007,39.519172,-121.57431,Oroville,California,95965
0630520,630520,Pioneer Union Elementary,95916-9724,39.625408,-121.37448,Berry Creek,California,95916
0600090,600090,Butte County ROP,95928,39.715783,-121.80426,Chico,California,95928
0600051,600051,Gridley Unified,95948-2533,39.363133,-121.69110,Gridley,California,95948
0691003,691003,Calaveras County Office of Education,95222-0760,38.080930,-120.55516,Angels Camp,California,95222
0605940,605940,Bret Harte Union High,95221,38.078506,-120.55249,Angels Camp,California,95221
0606870,606870,Calaveras Unified,95249-0788,38.207600,-120.76700,San Andreas,California,95249
0623970,623970,Mark Twain Union Elementary,95222-1359,38.074556,-120.55430,Angels Camp,California,95222
0640680,640680,Vallecito Union,95224,38.201889,-120.36548,Avery,California,95224
0600091,600091,Calaveras County ROP,No Data,No Data,No Data,No Data,California,No Data
0691004,691004,Colusa County Office of Education,95932-2445,39.212432,-122.00831,Colusa,California,95932
0609570,609570,Colusa Unified,95932-2220,39.210697,-122.01659,Colusa,California,95932
0624150,624150,Maxwell Unified,95955-0788,39.276200,-122.20354,Maxwell,California,95955
0630360,630360,Pierce Joint Unified,95912,39.016000,-122.05770,Arbuckle,California,95912
0642540,642540,Williams Unified,95987-0007,39.156417,-122.15841,Williams,California,95987
0691005,691005,Contra Costa County Office of Education,94523-4201,37.935382,-122.06991,Pleasant Hill,California,94523
0601650,601650,Acalanes Union High,94549-2623,37.905816,-122.09980,Lafayette,California,94549
0602850,602850,Antioch Unified,94509-1259,38.014398,-121.81376,Antioch,California,94509
0605910,605910,Brentwood Union,94513-1610,37.922123,-121.68269,Brentwood,California,94513
0606750,606750,Byron Union Elementary,94514-2515,37.857008,-121.62878,Byron,California,94514
0607350,607350,Canyon Elementary,94516-0187,37.830425,-122.16623,Canyon,California,94516
0618990,618990,John Swett Unified,94572-1400,38.032612,-122.26702,Rodeo,California,94572
0620040,620040,Knightsen Elementary,94548-0265,37.968769,-121.66169,Knightsen,California,94548
0620310,620310,Lafayette Elementary,94549-1029,37.887517,-122.11411,Lafayette,California,94549
0621600,621600,Liberty Union High,94513-1379,37.934950,-121.68870,Brentwood,California,94513
0624030,624030,Martinez Unified,94553-1848,38.014885,-122.13180,Martinez,California,94553
0625740,625740,Moraga Elementary,94556-0158,37.834650,-122.13109,Moraga,California,94556
0626370,626370,Mt. Diablo Unified,94519-1397,37.987477,-122.00607,Concord,California,94519
0628080,628080,Oakley Union Elementary,94561-4617,37.981486,-121.71628,Oakley,California,94561
0628860,628860,Orinda Union,94563-2603,37.882694,-122.18306,Orinda,California,94563
0630600,630600,Pittsburg Unified,94565-3830,38.020229,-121.88820,Pittsburg,California,94565
0632550,632550,West Contra Costa Unified,94801-3135,37.934063,-122.35848,Richmond,California,94801
0635130,635130,San Ramon Valley Unified,94526-4331,37.812241,-121.97705,Danville,California,94526
0641250,641250,Walnut Creek Elementary,94596-3826,37.908010,-122.05564,Walnut Creek,California,94596
0600092,600092,Contra Costa County ROP,94523,37.935012,-122.06968,Pleasant Hill,California,94523
0601419,601419,SBE - Synergy,94565-4911,38.011099,-121.88682,Pittsburg,California,94565
0691063,691063,Del Norte County Office of Education,95531-8340,41.772734,-124.20591,Crescent City,California,95531
0610770,610770,Del Norte County Unified,95531-8340,41.772734,-124.20591,Crescent City,California,95531
0600093,600093,Del Norte County ROP,95531,41.772734,-124.20591,Crescent City,California,95531
0691006,691006,El Dorado County Office of Education,95667-8984,38.720320,-120.86639,Placerville,California,95667
0606270,606270,Buckeye Union Elementary,95762-5737,38.623200,-121.05792,El Dorado Hills,California,95762
0607170,607170,Camino Union Elementary,95709-9578,38.734611,-120.67882,Camino,California,95709
0612070,612070,El Dorado Union High,95667-6816,38.694651,-120.82379,Placerville,California,95667
0615390,615390,Gold Oak Union Elementary,95667-7836,38.692386,-120.71838,Placerville,California,95667
0615450,615450,Gold Trail Union Elementary,95667-8929,38.770686,-120.92795,Placerville,California,95667
0618240,618240,Indian Diggings Elementary,95684-9209,38.581663,-120.57737,Somerset,California,95684
0620640,620640,Lake Tahoe Unified,96150-4426,38.934432,-119.97607,South Lake Tahoe,California,96150
0621180,621180,Latrobe,95682-8026,38.555370,-120.99051,Shingle Springs,California,95682
0625980,625980,Mother Lode Union Elementary,95667-6207,38.708332,-120.83076,Placerville,California,95667
0630480,630480,Pioneer Union,95684-0008,38.605270,-120.71193,Somerset,California,95684
0630780,630780,Placerville Union Elementary,95667-5713,38.728522,-120.79343,Placerville,California,95667
0631290,631290,Pollock Pines Elementary,95726-9608,38.746541,-120.57773,Pollock Pines,California,95726
0632310,632310,Rescue Union Elementary,95672-9608,38.694692,-121.00831,Rescue,California,95672
0636810,636810,Silver Fork Elementary,95726-9266,38.746541,-120.57773,Pollock Pines,California,95726
0605240,605240,Black Oak Mine Unified,95634-9001,38.912124,-120.83039,Georgetown,California,95634
0600096,600096,Central Sierra ROP,95667,38.731810,-120.83506,Placerville,California,95667
0601324,601324,SBC - Aspire Public Schools,94606-5232,37.782367,-122.24028,Oakland,California,94606
0601335,601335,SBC - Pacific Technology,92683,33.759900,-118.02023,Westminster,California,92683
0691007,691007,Fresno County Office of Education,93721-2002,36.735686,-119.79037,Fresno,California,93721
0602370,602370,Alvina Elementary,93609-9710,36.554513,-119.79619,Caruthers,California,93609
0602550,602550,American Union Elementary,93706-9601,36.634069,-119.84074,Fresno,California,93706
0604860,604860,Big Creek Elementary,93605-0098,37.204100,-119.24840,Big Creek,California,93605
0606540,606540,Burrel Union Elementary,93656-9746,36.492809,-119.98978,Riverdale,California,93656
0607620,607620,Caruthers Union Elementary,93609-0007,No Data,No Data,Caruthers,California,93609
0607650,607650,Caruthers Union High,93609-0545,No Data,No Data,Caruthers,California,93609
0608850,608850,Clay Joint Elementary,93631-9717,36.554906,-119.50469,Kingsburg,California,93631
0609030,609030,Clovis Unified,93611-0567,36.837575,-119.68977,Clovis,California,93611
0609120,609120,Coalinga-Huron Unified,93210-2927,36.142334,-120.36406,Coalinga,California,93210
0614250,614250,Fowler Unified,93625-2111,36.634569,-119.67400,Fowler,California,93625
0614550,614550,Fresno Unified,93721-2287,36.736759,-119.78699,Fresno,California,93721
0614580,614580,West Fresno Elementary,93706-5513,36.697989,-119.79304,Fresno,California,93706
0619800,619800,Kingsburg Elementary Charter,93631-1000,36.525086,-119.55427,Kingsburg,California,93631
0619830,619830,Kingsburg Joint Union High,93631-1629,36.517915,-119.54780,Kingsburg,California,93631
0619700,619700,Kings Canyon Joint Unified,93654-2427,36.596434,-119.45337,Reedley,California,93654
0621150,621150,Laton Joint Unified,93242-0248,36.434481,-119.68550,Laton,California,93242
0625290,625290,Monroe Elementary,93725-9618,36.565142,-119.73696,Fresno,California,93725
0628530,628530,Orange Center,93706-5615,36.682253,-119.78167,Fresno,California,93706
0629400,629400,Pacific Union Elementary,93725-9630,36.601749,-119.75334,Fresno,California,93725
0629910,629910,Parlier Unified,93648-2034,36.615617,-119.52803,Parlier,California,93648
0630390,630390,Pine Ridge Elementary,93602-9721,37.059508,-119.38959,Auberry,California,93602
0631680,631680,Raisin City Elementary,93652-0069,36.600962,-119.90627,Raisin City,California,93652
0635250,635250,Sanger Unified,93657-2806,36.705838,-119.56406,Sanger,California,93657
0636270,636270,Selma Unified,93662-2497,36.578367,-119.61956,Selma,California,93662
0641460,641460,Washington Colony Elementary,93706-6043,36.649316,-119.78765,Fresno,California,93706
0641640,641640,Washington Union High,93706-6099,36.648148,-119.79091,Fresno,California,93706
0642060,642060,West Park Elementary,93706-9042,36.691385,-119.85350,Fresno,California,93706
0642210,642210,Westside Elementary,93624-0398,36.400119,-120.14305,Five Points,California,93624
0613840,613840,Firebaugh-Las Deltas Unified,93622-9711,36.846874,-120.44691,Firebaugh,California,93622
0607970,607970,Central Unified,93722-3749,36.801314,-119.89214,Fresno,California,93722
0619490,619490,Kerman Unified,93630-1029,36.734959,-120.06314,Kerman,California,93630
0600097,600097,Valley ROP,93654,36.602560,-119.45122,Reedley,California,93654
0600098,600098,Fresno ROP,93706,36.741857,-119.82177,Fresno,California,93706
0600022,600022,Mendota Unified,93640-2000,36.761094,-120.38701,Mendota,California,93640
0691134,691134,Golden Plains Unified,93660,36.609200,-120.18750,San Joaquin,California,93660
0636805,636805,Sierra Unified,93651-9757,37.036855,-119.52014,Prather,California,93651
0600040,600040,Riverdale Joint Unified,93656-9272,36.430962,-119.85498,Riverdale,California,93656
0600067,600067,Caruthers Unified,93609,36.543820,-119.83165,Caruthers,California,93609
0601415,601415,Washington Unified,93706-9283,36.620238,-119.78996,Fresno,California,93706
0691008,691008,Glenn County Office of Education,95988-2739,39.517633,-122.20890,Willows,California,95988
0607410,607410,Capay Joint Union Elementary,95963-9691,39.796979,-122.08580,Orland,California,95963
0616410,616410,Hamilton Union Elementary,95951-0277,No Data,No Data,Hamilton City,California,95951
0616440,616440,Hamilton Union High,95951-0488,No Data,No Data,Hamilton City,California,95951
0620610,620610,Lake Elementary,95963-8122,39.775308,-122.15968,Orland,California,95963
0630870,630870,Plaza Elementary,95963-9777,39.710433,-122.09769,Orland,California,95963
0631620,631620,Princeton Joint Unified,95970,39.401532,-122.01118,Princeton,California,95970
0638070,638070,Stony Creek Joint Unified,95939-9708,39.606388,-122.54428,Elk Creek,California,95939
0642710,642710,Willows Unified,95988-2830,39.517931,-122.20350,Willows,California,95988
0600099,600099,Glenn County ROP,95988,39.515370,-122.20881,Willows,California,95988
0600045,600045,Orland Joint Unified,95963-1641,39.740287,-122.19951,Orland,California,95963
0601339,601339,Hamilton Unified,95951,39.745455,-122.01903,Hamilton City,California,95951
0691009,691009,Humboldt County Office of Education,95501-1219,40.800627,-124.14983,Eureka,California,95501
0603000,603000,Arcata Elementary,95521-6909,40.857327,-124.06698,Arcata,California,95521
0603030,603030,Northern Humboldt Union High,95519-3400,40.953070,-124.11040,McKinleyville,California,95519
0604890,604890,Big Lagoon Union Elementary,95570-9622,41.163180,-124.13065,Trinidad,California,95570
0605400,605400,Blue Lake Union Elementary,95525-0268,40.885068,-123.99190,Blue Lake,California,95525
0606000,606000,Bridgeville Elementary,95526-0098,40.499626,-123.81802,Bridgeville,California,95526
0610230,610230,Cuddeback Union Elementary,95528-0007,40.536688,-124.04149,Carlotta,California,95528
0610380,610380,Cutten Elementary,95503-6223,40.766216,-124.14308,Eureka,California,95503
0613740,613740,Fieldbrook Elementary,95519-9709,40.951789,-124.03267,McKinleyville,California,95519
0614160,614160,Fortuna Union Elementary,95540-1921,40.597117,-124.15852,Fortuna,California,95540
0614190,614190,Fortuna Union High,95540-2108,40.598388,-124.15320,Fortuna,California,95540
0614520,614520,Freshwater Elementary,95503-9569,40.787702,-124.08259,Eureka,California,95503
0614910,614910,Garfield Elementary,95503-9562,40.756423,-124.03514,Eureka,California,95503
0615990,615990,Green Point Elementary,95525-9700,41.001456,-123.85732,Blue Lake,California,95525
0618120,618120,Hydesville Elementary,95547-0551,40.554654,-124.09172,Hydesville,California,95547
0618660,618660,Jacoby Creek Elementary,95524-9301,40.849481,-124.06875,Bayside,California,95524
0619950,619950,Klamath-Trinity Joint Unified,95546-1308,41.054384,-123.67864,Hoopa,California,95546
0619980,619980,Kneeland Elementary,95549-9018,40.696731,-123.93631,Kneeland,California,95549
0622320,622320,Loleta Union Elementary,95551-0547,40.642757,-124.21239,Loleta,California,95551
0623730,623730,Maple Creek Elementary,95550-9602,40.864169,-123.94171,Korbel,California,95550
0624300,624300,McKinleyville Union Elementary,95519-3611,40.946729,-124.10090,McKinleyville,California,95519
0628830,628830,Orick Elementary,95555-0128,41.287146,-124.05912,Orick,California,95555
0629430,629430,Pacific Union Elementary,93725-9630,36.601749,-119.75334,Fresno,California,93725
0630090,630090,Peninsula Union,95564-0175,40.822000,-124.18260,Samoa,California,95564
0632730,632730,Rio Dell Elementary,95562-1323,40.502024,-124.10458,Rio Dell,California,95562
0633330,633330,Rohnerville Elementary,95540-3122,40.561900,-124.12699,Fortuna,California,95540
0636100,636100,Scotia Union Elementary,95565-0217,40.483439,-124.10149,Scotia,California,95565
0637350,637350,South Bay Union Elementary,95503-6869,40.731068,-124.21317,Eureka,California,95503
0637590,637590,Southern Humboldt Joint Unified,95553,40.236100,-123.82300,Miranda,California,95553
0639720,639720,Trinidad Union Elementary,95570-3030,41.060570,-124.14378,Trinidad,California,95570
0600100,600100,Humboldt County ROP,95501,40.800627,-124.14983,Eureka,California,95501
0600037,600037,Ferndale Unified,95536-9416,40.577279,-124.26704,Ferndale,California,95536
0600038,600038,Mattole Unified,95558-0211,40.321600,-124.28481,Petrolia,California,95558
0600052,600052,Eureka City Schools,95501-3055,40.788638,-124.15892,Eureka,California,95501
0601420,601420,Fortuna Elementary,95540-2328,40.596702,-124.15471,Fortuna,California,95540
0691010,691010,Imperial County Office of Education,92243-9621,32.746360,-115.56438,El Centro,California,92243
0605790,605790,Brawley Elementary,92227-1912,32.980940,-115.53805,Brawley,California,92227
0605820,605820,Brawley Union High,92227-1625,32.982858,-115.53491,Brawley,California,92227
0606900,606900,Calexico Unified,92231-3015,32.675999,-115.48258,Calexico,California,92231
0606990,606990,Calipatria Unified,92233-9787,33.125699,-115.52311,Calipatria,California,92233
0608010,608010,Central Union High,93705,No Data,No Data,Fresno,California,93705
0612030,612030,El Centro Elementary,92243-2317,32.793899,-115.56625,El Centro,California,92243
0616830,616830,Heber Elementary,92249-9759,32.727064,-115.52997,Heber,California,92249
0617430,617430,Holtville Unified,92250-1450,32.812965,-115.37364,Holtville,California,92250
0618210,618210,Imperial Unified,92251,32.849116,-115.57493,Imperial,California,92251
0623460,623460,Magnolia Union Elementary,92227-9561,32.981890,-115.42344,Brawley,California,92227
0624180,624180,McCabe Union Elementary,92243-9507,32.752404,-115.59028,El Centro,California,92243
0624390,624390,Meadows Union,92243-9724,32.797142,-115.47389,El Centro,California,92243
0626430,626430,Mulberry Elementary,92227-9578,33.044466,-115.42420,Brawley,California,92227
0635070,635070,San Pasqual Valley Unified,92283-9801,32.751944,-114.59884,Winterhaven,California,92283
0636210,636210,Seeley Union Elementary,92273-0868,32.794526,-115.69164,Seeley,California,92273
0642180,642180,Westmorland Union Elementary,92281-0088,33.036217,-115.61865,Westmorland,California,92281
0600101,600101,Imperial Valley ROP,92243,32.791505,-115.55896,El Centro,California,92243
0691011,691011,Inyo County Office of Education,93514-2984,37.360198,-118.43433,Bishop,California,93514
0604950,604950,Big Pine Unified,93513-0908,37.161788,-118.28898,Big Pine,California,93513
0605130,605130,Bishop Union Elementary,93514,37.365400,-118.40450,Bishop,California,93514
0605160,605160,Bishop Joint Union High,93514-2609,37.363134,-118.39827,Bishop,California,93514
0610680,610680,Death Valley Unified,92384-0217,35.976161,-116.27100,Shoshone,California,92384
0622440,622440,Lone Pine Unified,93545-0159,36.603300,-118.06014,Lone Pine,California,93545
0629190,629190,Owens Valley Unified,93526-0605,36.802526,-118.19667,Independence,California,93526
0633690,633690,Round Valley Joint Elementary,93514-9632,37.403941,-118.58513,Bishop,California,93514
0600102,600102,Inyo County ROP,93514-2984,No Data,No Data,Bishop,California,93514
0601409,601409,Bishop Unified,93514-2609,37.363583,-118.40070,Bishop,California,93514
0691012,691012,Kern County Office of Education,93301-4533,35.374390,-119.01650,Bakersfield,California,93301
0603270,603270,Arvin Union,93203-1413,35.209002,-118.83207,Arvin,California,93203
0603630,603630,Bakersfield City,93305-4326,35.382075,-118.99110,Bakersfield,California,93305
0604260,604260,Beardsley Elementary,93308-4503,35.408530,-119.04105,Bakersfield,California,93308
0604560,604560,Belridge Elementary,93251-9715,35.458277,-119.79120,McKittrick,California,93251
0605250,605250,Blake Elementary,93287-0040,35.703746,-118.83715,Woody,California,93287
0606390,606390,Panama-Buena Vista Union,93313-2029,35.317348,-119.07439,Bakersfield,California,93313
0606720,606720,Buttonwillow Union Elementary,93206-9700,35.399237,-119.47642,Buttonwillow,California,93206
0606960,606960,Caliente Union Elementary,93518-2851,35.347237,-118.38561,Caliente,California,93518
0610890,610890,Delano Union Elementary,93215-2416,35.772834,-119.23932,Delano,California,93215
0610860,610860,Delano Joint Union High,93215-1456,35.778186,-119.24090,Delano,California,93215
0611130,611130,Di Giorgio Elementary,93203-9709,35.238386,-118.78619,Arvin,California,93203
0611940,611940,Edison Elementary,93307-9148,35.347249,-118.87532,Bakersfield,California,93307
0612360,612360,Elk Hills Elementary,93276-0129,35.298000,-119.35460,Tupman,California,93276
0613290,613290,Fairfax Elementary,93307-3151,35.341509,-118.93202,Bakersfield,California,93307
0614700,614700,Fruitvale Elementary,93308-5738,35.383301,-119.08360,Bakersfield,California,93308
0615000,615000,General Shafter Elementary,93313-9766,35.223148,-119.02417,Bakersfield,California,93313
0616050,616050,Greenfield Union,93307-5512,35.303181,-119.02043,Bakersfield,California,93307
0619540,619540,Kern High,93309-2924,35.343886,-119.06554,Bakersfield,California,93309
0619590,619590,Kernville Union Elementary,93240-3077,35.612022,-118.46743,Lake Isabella,California,93240
0620730,620730,Lakeside Union,93311-9756,35.222505,-119.11005,Bakersfield,California,93311
0620850,620850,Lamont Elementary,93241-1350,35.263202,-118.91639,Lamont,California,93241
0621450,621450,Richland Union Elementary,93263-1967,35.504630,-119.28270,Shafter,California,93263
0621900,621900,Linns Valley-Poso Flat Union,93226-0399,35.730014,-118.70482,Glennville,California,93226
0622950,622950,Lost Hills Union Elementary,93249-0158,35.615205,-119.70291,Lost Hills,California,93249
0623760,623760,Maple Elementary,93263-9719,35.514491,-119.33639,Shafter,California,93263
0623820,623820,Maricopa Unified,93252-9779,35.055057,-119.40274,Maricopa,California,93252
0624330,624330,McKittrick Elementary,93251-0277,35.302600,-119.62380,McKittrick,California,93251
0624780,624780,Midway Elementary,93224-0039,35.173347,-119.54388,Fellows,California,93224
0625230,625230,Mojave Unified,93501-1143,35.049274,-118.18899,Mojave,California,93501
0626490,626490,Muroc Joint Unified,93523-3533,35.015686,-117.82924,North Edwards,California,93523
0627450,627450,Norris Elementary,93312-9005,35.423422,-119.10988,Bakersfield,California,93312
0631350,631350,Pond Union Elementary,93280-0927,35.717699,-119.32080,Wasco,California,93280
0633480,633480,Rosedale Union Elementary,93312-3531,35.383015,-119.13680,Bakersfield,California,93312
0636330,636330,Semitropic Elementary,93280-9540,35.601072,-119.51070,Wasco,California,93280
0637620,637620,Southern Kern Unified,93560-0640,34.864184,-118.17812,Rosamond,California,93560
0637470,637470,South Fork Union,93283-9564,35.550143,-118.20939,Weldon,California,93283
0637890,637890,Standard Elementary,93308-3521,35.417295,-119.02102,Bakersfield,California,93308
0638700,638700,Taft City,93268-2306,35.147319,-119.45764,Taft,California,93268
0638730,638730,Taft Union High,93268-2319,35.146325,-119.46063,Taft,California,93268
0638880,638880,Tehachapi Unified,93561-1519,35.129348,-118.44556,Tehachapi,California,93561
0641130,641130,Vineland Elementary,93307-9653,35.221443,-118.91443,Bakersfield,California,93307
0641400,641400,Wasco Union Elementary,93280-1825,35.597187,-119.33844,Wasco,California,93280
0641430,641430,Wasco Union High,93280-1563,35.594325,-119.34936,Wasco,California,93280
0632710,632710,Rio Bravo-Greeley Union Elementary,93314-8721,35.416466,-119.25204,Bakersfield,California,93314
0636800,636800,Sierra Sands Unified,93555-3520,35.633167,-117.67158,Ridgecrest,California,93555
0624230,624230,McFarland Unified,93250,No Data,No Data,McFarland,California,93250
0600073,600073,West Side ROP,93268,35.144627,-119.46411,Taft,California,93268
0600074,600074,North Kern Vocational Training Center,93280-1563,35.594521,-119.35023,Wasco,California,93280
0600075,600075,Kern County ROP,93309,35.343886,-119.06554,Bakersfield,California,93309
0600076,600076,Kern High ROC,93307,35.350753,-118.96739,Bakersfield,California,93307
0600026,600026,El Tejon Unified,93243-0876,34.870475,-118.88409,Lebec,California,93243
0691013,691013,Kings County Office of Education,93230-5956,36.328144,-119.66158,Hanford,California,93230
0603180,603180,Armona Union Elementary,93202-0368,36.312085,-119.70703,Armona,California,93202
0607980,607980,Central Union Elementary,93245-9742,36.244090,-119.78079,Lemoore,California,93245
0609690,609690,Corcoran Joint Unified,93212-1722,36.101672,-119.56685,Corcoran,California,93212
0611010,611010,Delta View Joint Union Elementary,93230-9306,36.327740,-119.47922,Hanford,California,93230
0616470,616470,Hanford Elementary,93230-4029,36.332631,-119.63954,Hanford,California,93230
0616500,616500,Hanford Joint Union High,93230-3067,36.328070,-119.65718,Hanford,California,93230
0618510,618510,Island Union Elementary,93245-9673,36.353577,-119.83402,Lemoore,California,93245
0619770,619770,Kings River-Hardwick Union Elementary,93230-9108,36.401207,-119.64165,Hanford,California,93230
0619890,619890,Kit Carson Union Elementary,93230-8802,36.329728,-119.58306,Hanford,California,93230
0620760,620760,Lakeside Union Elementary,93230-9560,36.240517,-119.62562,Hanford,California,93230
0621360,621360,Lemoore Union Elementary,93245-9420,36.305667,-119.80469,Lemoore,California,93245
0621400,621400,Lemoore Union High,93245-2856,36.298494,-119.77964,Lemoore,California,93245
0630510,630510,Pioneer Union Elementary,95916-9724,39.625408,-121.37448,Berry Creek,California,95916
0632270,632270,Reef-Sunset Unified,93204-1425,35.993962,-120.12834,Avenal,California,93204
0600077,600077,Kings County ROP,93245,36.299613,-119.76812,Lemoore,California,93245
0691014,691014,Lake County Office of Education,95453-5517,39.028703,-122.91600,Lakeport,California,95453
0619320,619320,Kelseyville Unified,95451-8953,38.975602,-122.83117,Kelseyville,California,95451
0620070,620070,Konocti Unified,95457,38.914767,-122.60778,Lower Lake,California,95457
0620670,620670,Lakeport Unified,95453-6908,39.061607,-122.91813,Lakeport,California,95453
0623040,623040,Lucerne Elementary,95458-1083,39.083455,-122.78908,Lucerne,California,95458
0624750,624750,Middletown Unified,95461-0338,38.761807,-122.61719,Middletown,California,95461
0640470,640470,Upper Lake Union Elementary,95485-0036,39.165779,-122.90339,Upper Lake,California,95485
0640500,640500,Upper Lake Union High,95485-9220,39.164975,-122.90268,Upper Lake,California,95485
0600078,600078,Lake County ROP,95453,39.028703,-122.91600,Lakeport,California,95453
0601442,601442,Upper Lake Unified,95485-9220,39.165836,-122.90155,Upper Lake,California,95485
0691015,691015,Lassen County Office of Education,96130-8752,40.375147,-120.57998,Susanville,California,96130
0605010,605010,Big Valley Joint Unified,96009-0157,41.121382,-121.14009,Bieber,California,96009
0618780,618780,Janesville Union Elementary,96114-0280,40.293541,-120.51693,Janesville,California,96114
0619050,619050,Johnstonville Elementary,96130-7716,40.383387,-120.58934,Susanville,California,96130
0621060,621060,Lassen Union High,96130-4409,40.417396,-120.65775,Susanville,California,96130
0631830,631830,Ravendale-Termo Elementary,96132-7126,40.375800,-120.58080,Termo,California,96132
0632520,632520,Richmond Elementary,96130-5026,40.373159,-120.63506,Susanville,California,96130
0636420,636420,Shaffer Union Elementary,96117-0320,40.382192,-120.38246,Litchfield,California,96117
0638550,638550,Susanville Elementary,96130-4150,40.413690,-120.64565,Susanville,California,96130
0642300,642300,Westwood Unified,96137-1225,40.304139,-121.00812,Westwood,California,96137
0600079,600079,Lassen ROP,96130,40.375147,-120.57998,Susanville,California,96130
0600011,600011,Fort Sage Unified,96113-0035,40.141907,-120.13399,Herlong,California,96113
0601408,601408,SBE - Long Valley Charter,96109-0007,40.045680,-120.12343,Doyle,California,96109
0691078,691078,Los Angeles County Office of Education,90242-2890,33.916978,-118.12860,Downey,California,90242
0600053,600053,CEA Los Angeles Co,90650,No Data,No Data,Norwalk,California,90650
0601620,601620,ABC Unified,90703-1838,33.878988,-118.07255,Cerritos,California,90703
0601910,601910,Alhambra City Elementary,91802-2110,No Data,No Data,Alhambra,California,91802
0601930,601930,Alhambra City High,91802-2110,No Data,No Data,Alhambra,California,91802
0602820,602820,Antelope Valley Union High,93535-4531,34.664389,-118.12863,Lancaster,California,93535
0602970,602970,Arcadia Unified,91006-3703,34.138486,-118.02343,Arcadia,California,91006
0603600,603600,Azusa Unified,91702-0500,34.117617,-117.89018,Azusa,California,91702
0603690,603690,Baldwin Park Unified,91706-5397,34.082071,-117.96078,Baldwin Park,California,91706
0604110,604110,Bassett Unified,91746-1615,34.052583,-117.97187,La Puente,California,91746
0604440,604440,Bellflower Unified,90706-5203,33.882908,-118.13400,Bellflower,California,90706
0604830,604830,Beverly Hills Unified,90212-3644,34.062922,-118.41006,Beverly Hills,California,90212
0605610,605610,Bonita Unified,91773-1437,34.117591,-117.80744,San Dimas,California,91773
0606450,606450,Burbank Unified,91506-2438,34.165490,-118.32494,Burbank,California,91506
0607740,607740,Castaic Union,91355-4114,34.440801,-118.62665,Valencia,California,91355
0607920,607920,Centinela Valley Union High,90260-1251,33.896373,-118.36136,Lawndale,California,90260
0608190,608190,Charter Oak Unified,91724-1227,34.103001,-117.85742,Covina,California,91724
0608760,608760,Claremont Unified,91711-5285,34.083106,-117.71658,Claremont,California,91711
0610050,610050,Covina-Valley Unified,91723-0269,34.086570,-117.88052,Covina,California,91723
0610260,610260,Culver City Unified,90232-2810,34.022089,-118.39332,Culver City,California,90232
0611460,611460,Downey Unified,90241-7017,33.934338,-118.13271,Downey,California,90241
0611520,611520,Duarte Unified,91010-2534,34.139542,-117.97063,Duarte,California,91010
0611910,611910,Eastside Union Elementary,93535-2815,34.702010,-118.07704,Lancaster,California,93535
0611850,611850,East Whittier City Elementary,90605-2130,33.953456,-118.01485,Whittier,California,90605
0612090,612090,El Monte City,91731-2684,34.073014,-118.03939,El Monte,California,91731
0612120,612120,El Monte Union High,91731-3290,34.071779,-118.03059,El Monte,California,91731
0612180,612180,El Rancho Unified,90660-2913,33.994855,-118.08155,Pico Rivera,California,90660
0612210,612210,El Segundo Unified,90245-3036,33.924218,-118.41129,El Segundo,California,90245
0614940,614940,Garvey Elementary,91770-3026,34.061644,-118.09939,Rosemead,California,91770
0615240,615240,Glendale Unified,91206-4334,34.148574,-118.25017,Glendale,California,91206
0615270,615270,Glendora Unified,91741-2964,34.143357,-117.84619,Glendora,California,91741
0615600,615600,Gorman Joint,93243-0104,34.792938,-118.85330,Gorman,California,93243
0616680,616680,Hawthorne,90250-7006,33.903681,-118.35238,Hawthorne,California,90250
0617040,617040,Hermosa Beach City Elementary,90254-2921,33.866167,-118.39771,Hermosa Beach,California,90254
0617880,617880,Hughes-Elizabeth Lakes Union Elementary,93532-0600,34.671016,-118.42327,Lake Hughes,California,93532
0618390,618390,Inglewood Unified,90301-2501,33.958761,-118.36175,Inglewood,California,90301
0619440,619440,Keppel Union Elementary,93553-0186,34.502938,-117.90091,Pearblossom,California,93553
0620130,620130,La Canada Unified,91011-3243,34.205641,-118.20363,La Canada,California,91011
0620880,620880,Lancaster Elementary,93534-3210,34.694742,-118.13908,Lancaster,California,93534
0621000,621000,Las Virgenes Unified,91302-1929,34.135047,-118.70276,Calabasas,California,91302
0621210,621210,Lawndale Elementary,90260-1709,33.898340,-118.34799,Lawndale,California,90260
0621420,621420,Lennox,90304-1419,33.941583,-118.35704,Lennox,California,90304
0621930,621930,Little Lake City Elementary,90670-3703,33.938662,-118.08213,Santa Fe Springs,California,90670
0622500,622500,Long Beach Unified,90810-1839,33.828605,-118.21374,Long Beach,California,90810
0622710,622710,Los Angeles Unified,90017-1466,34.056109,-118.25698,Los Angeles,California,90017
0622890,622890,Los Nietos,90606-3314,33.967056,-118.06680,Whittier,California,90606
0623160,623160,Lynwood Unified,90262-3600,33.926289,-118.20002,Lynwood,California,90262
0625320,625320,Monrovia Unified,91016-3585,34.140573,-117.99573,Monrovia,California,91016
0625470,625470,Montebello Unified,90640-4729,34.009452,-118.10843,Montebello,California,90640
0626190,626190,Mountain View Elementary,91732-3201,34.062519,-118.00960,El Monte,California,91732
0627180,627180,Newhall,91355-3000,34.389294,-118.54758,Valencia,California,91355
0627690,627690,Norwalk-La Mirada Unified,90650-2894,33.914480,-118.08172,Norwalk,California,90650
0629580,629580,Palmdale Elementary,93550-3419,34.595067,-118.11210,Palmdale,California,93550
0629700,629700,Palos Verdes Peninsula Unified,90274-1277,33.800680,-118.39524,Palos Verdes Estates,California,90274
0629850,629850,Paramount Unified,90723-4378,33.896193,-118.15872,Paramount,California,90723
0629940,629940,Pasadena Unified,91101-3507,34.139860,-118.13382,Pasadena,California,91101
0631320,631320,Pomona Unified,91766-3325,34.052416,-117.74988,Pomona,California,91766
0633570,633570,Rosemead Elementary,91770-2041,34.078785,-118.07322,Rosemead,California,91770
0634860,634860,San Marino Unified,91108-2594,34.118370,-118.11199,San Marino,California,91108
0635700,635700,Santa Monica-Malibu Unified,90401-3319,34.011332,-118.48840,Santa Monica,California,90401
0635970,635970,Saugus Union,91355-1272,34.439612,-118.57187,Santa Clarita,California,91355
0637500,637500,South Pasadena Unified,91030-3118,34.114996,-118.15482,South Pasadena,California,91030
0637560,637560,South Whittier Elementary,90605-3729,33.929882,-118.03937,Whittier,California,90605
0638220,638220,Sulphur Springs Union,91351-4947,34.407998,-118.46826,Canyon Country,California,91351
0638980,638980,Temple City Unified,91780-2242,34.107045,-118.05802,Temple City,California,91780
0639420,639420,Torrance Unified,90501-3420,33.828400,-118.32158,Torrance,California,90501
0640650,640650,Valle Lindo Elementary,91733-3388,34.044460,-118.04688,South El Monte,California,91733
0642000,642000,West Covina Unified,91790-3406,34.064153,-117.94993,West Covina,California,91790
0642120,642120,Westside Union Elementary,93536-2963,34.643980,-118.21838,Quartz Hill,California,93536
0642450,642450,Whittier City,90602-1123,33.976273,-118.04325,Whittier,California,90602
0642480,642480,Whittier Union High,90605-2798,33.952059,-118.04429,Whittier,California,90605
0642510,642510,William S. Hart Union High,91350-2948,34.410925,-118.50685,Santa Clarita,California,91350
0642810,642810,Wilsona Elementary,93591-3800,34.616580,-117.80827,Palmdale,California,93591
0642990,642990,Wiseburn Elementary,90250-6498,33.909135,-118.37863,Hawthorne,California,90250
0609620,609620,Compton Unified,90221-3814,33.892308,-118.21618,Compton,California,90221
0616325,616325,Hacienda la Puente Unified,91745-1604,34.010613,-117.95873,City Of Industry,California,91745
0633750,633750,Rowland Unified,91748-2945,33.983667,-117.88888,Rowland Heights,California,91748
0641280,641280,Walnut Valley Unified,91789-2931,34.000993,-117.85512,Walnut,California,91789
0600103,600103,La Puente Valley ROP,91744,34.012425,-117.89907,La Puente,California,91744
0600104,600104,Southeast ROP,90703,33.847613,-118.07967,Cerritos,California,90703
0600105,600105,San Gabriel Valley Regional Occupational Program,91740,34.126491,-117.88120,Glendora,California,91740
0600106,600106,Tri-Cities ROP,90606,33.970026,-118.07866,Whittier,California,90606
0600107,600107,Southern California ROC,90501,33.824924,-118.32846,Torrance,California,90501
0600108,600108,Long Beach Unified ROP,90813,33.775358,-118.19116,Long Beach,California,90813
0600109,600109,Los Angeles Unified ROCP,90017-1466,34.056237,-118.25736,Los Angeles,California,90017
0600110,600110,Los Angeles County ROP,90242,33.915900,-118.12880,Downey,California,90242
0600111,600111,Hart ROP,91350,34.410419,-118.51094,Santa Clarita,California,91350
0600112,600112,Antelope Valley ROP,93550-6149,34.557355,-118.10664,Palmdale,California,93550
0600113,600113,Compton Unified ROP,90220,33.898131,-118.25481,Compton,California,90220
0600114,600114,San Antonio ROP,91768,34.063522,-117.75478,Pomona,California,91768
0634425,634425,San Gabriel Unified,91776-4500,34.097604,-118.10487,San Gabriel,California,91776
0600001,600001,Acton-Agua Dulce Unified,93510-2620,34.472654,-118.19718,Acton,California,93510
0600025,600025,Manhattan Beach Unified,90266-2478,33.877355,-118.38744,Manhattan Beach,California,90266
0600032,600032,Redondo Beach Unified,90278-3999,33.865552,-118.36124,Redondo Beach,California,90278
0600115,600115,SBE -  Animo Inglewood Charter,90305,33.960029,-118.33138,Inglewood,California,90305
0600153,600153,Alhambra Unified,91803-1618,34.082565,-118.13972,Alhambra,California,91803
0600154,600154,SBE - Academy of Culture and Technology (ACT),91766,No Data,No Data,Pomona,California,91766
0601323,601323,SBE - Lifeline Education Charter,90221-3240,33.894634,-118.21607,Compton,California,90221
0601333,601333,SBE - Doris Topsy-Elvord Academy,90805,33.863666,-118.15129,Long Beach,California,90805
0601345,601345,SBE - Ingenium Charter,91304-5501,34.212762,-118.61151,Canoga Park,California,91304
0601407,601407,SBE - Today's Fresh Start Charter,90043-1221,34.002215,-118.33045,Los Angeles,California,90043
0601428,601428,Wiseburn Unified,90245-4637,33.917909,-118.38408,El Segundo,California,90245
0601440,601440,California Advancing Pathways for Students in Los Angeles County ROC/P,90706,33.882509,-118.13442,Bellflower,California,90706
0601448,601448,SBE - Celerity Rolas,90041-2366,34.139635,-118.19738,Los Angeles,California,90041
0691017,691017,Madera County Superintendent of Schools,93637-5576,36.942939,-120.05599,Madera,California,93637
0602360,602360,Alview-Dairyland Union Elementary,93610-9049,37.018204,-120.28466,Chowchilla,California,93610
0604080,604080,Bass Lake Joint Union Elementary,93644-8729,37.332528,-119.63895,Oakhurst,California,93644
0608520,608520,Chowchilla Elementary,93610-0907,37.122449,-120.26487,Chowchilla,California,93610
0608550,608550,Chowchilla Union High,93610-3199,37.116435,-120.26264,Chowchilla,California,93610
0609150,609150,Coarsegold Union Elementary,93644-9506,No Data,No Data,Oakhurst,California,93644
0623340,623340,Madera Unified,93637-5123,36.952673,-120.08106,Madera,California,93637
0631920,631920,Raymond-Knowles Union Elementary,93653-0047,37.233818,-119.89078,Raymond,California,93653
0643370,643370,Yosemite Joint Union High,93644-9506,No Data,No Data,Oakhurst,California,93644
0600023,600023,Chawanakee Jt. Elementary,93643,No Data,No Data,North Fork,California,93643
0600041,600041,Minarets Jt. Union High,93643,No Data,No Data,North Fork,California,93643
0600068,600068,Golden Valley Unified,93636-8726,36.922952,-119.86767,Madera,California,93636
0600116,600116,Chawanakee Unified,93645,37.128633,-119.73281,O'Neals,California,93645
0600160,600160,Yosemite Unified,93644-9506,37.329227,-119.63140,Oakhurst,California,93644
0691018,691018,Marin County Office of Education,94903-1843,38.013710,-122.55017,San Rafael,California,94903
0605520,605520,Bolinas-Stinson Union,94924-9747,37.909873,-122.68812,Bolinas,California,94924
0611220,611220,Miller Creek Elementary,94903-3523,37.998618,-122.54915,San Rafael,California,94903
0619380,619380,Kentfield Elementary,94904-1639,37.952009,-122.54953,Kentfield,California,94904
0620430,620430,Laguna Joint Elementary,94952-9428,38.199668,-122.71532,Petaluma,California,94952
0620520,620520,Lagunitas Elementary,94963-0308,38.017500,-122.67590,San Geronimo,California,94963
0620910,620910,Larkspur-Corte Madera,94939-1532,37.938281,-122.52560,Larkspur,California,94939
0621660,621660,Lincoln Elementary,94952-9407,38.148268,-122.74419,Petaluma,California,94952
0624870,624870,Mill Valley Elementary,94941-2231,37.896677,-122.52959,Mill Valley,California,94941
0627300,627300,Nicasio,94946,38.072982,-122.70584,Nicasio,California,94946
0627720,627720,Novato Unified,94945-2205,38.109661,-122.57811,Novato,California,94945
0632160,632160,Reed Union Elementary,94920,37.902636,-122.49977,Tiburon,California,94920
0633660,633660,Ross Elementary,94957-1058,37.962399,-122.55623,Ross,California,94957
0635090,635090,San Rafael City Elementary,94903-3523,37.999366,-122.55144,San Rafael,California,94903
0635110,635110,San Rafael City High,94903-3500,37.999366,-122.55144,San Rafael,California,94903
0636000,636000,Sausalito Marin City,94965-1194,37.872529,-122.51378,Marin City,California,94965
0638790,638790,Tamalpais Union High,94939-0605,37.937148,-122.52331,Larkspur,California,94939
0640410,640410,Union Joint Elementary,94952-9445,38.185403,-122.66552,Petaluma,California,94952
0636670,636670,Shoreline Unified,94971-0198,38.245382,-122.90385,Tomales,California,94971
0600117,600117,Marin County ROP,94903,38.013877,-122.54941,San Rafael,California,94903
0600006,600006,Ross Valley Elementary,94960-1112,37.981587,-122.56153,San Anselmo,California,94960
0691090,691090,Mariposa County Office of Education,95338,37.489370,-119.96387,Mariposa,California,95338
0600054,600054,CEA Mariposa Co,95338-5006,No Data,No Data,Mariposa,California,95338
0623940,623940,Mariposa County Unified,95338,37.490250,-119.96445,Mariposa,California,95338
0691019,691019,Mendocino County Office of Education,95482-7074,39.133143,-123.16603,Ukiah,California,95482
0602730,602730,Anderson Valley Unified,95415-9101,39.013894,-123.37593,Boonville,California,95415
0603090,603090,Arena Union Elementary,95468,38.914259,-123.69972,Point Arena,California,95468
0614070,614070,Fort Bragg Unified,95437-4416,39.438977,-123.79550,Fort Bragg,California,95437
0623550,623550,Manchester Union Elementary,95459-0098,38.986044,-123.68522,Manchester,California,95459
0624480,624480,Mendocino Unified,95460-1154,39.312268,-123.78285,Mendocino,California,95460
0631230,631230,Point Arena Joint Union High,95468,38.914259,-123.69972,Point Arena,California,95468
0633720,633720,Round Valley Unified,95428-0276,39.792399,-123.25616,Covelo,California,95428
0640300,640300,Ukiah Unified,95482-3411,39.147999,-123.19883,Ukiah,California,95482
0642560,642560,Willits Unified,95490-3007,39.398897,-123.35963,Willits,California,95490
0631400,631400,Potter Valley Community Unified,95469-0219,39.321793,-123.12360,Potter Valley,California,95469
0642580,642580,Laytonville Unified,95454-0868,39.683758,-123.48478,Laytonville,California,95454
0600118,600118,Mendocino County ROC/ROP,95482,39.129276,-123.16505,Ukiah,California,95482
0609665,609665,Leggett Valley Unified,95585-0186,39.864519,-123.71743,Leggett,California,95585
0691020,691020,Merced County Office of Education,95341-5908,37.297828,-120.48785,Merced,California,95341
0603420,603420,Atwater Elementary,95301-3546,37.347724,-120.61130,Atwater,California,95301
0603750,603750,Ballico-Cressey Elementary,95303-0049,37.454991,-120.70090,Ballico,California,95303
0612150,612150,El Nido Elementary,95317-9762,37.134686,-120.47741,El Nido,California,95317
0617220,617220,Hilmar Unified,95324-9398,37.403697,-120.85020,Hilmar,California,95324
0621240,621240,Le Grand Union Elementary,95333-0027,37.228375,-120.25222,Le Grand,California,95333
0621270,621270,Le Grand Union High,95333-9737,37.228374,-120.25232,Le Grand,California,95333
0622170,622170,Livingston Union,95334-1198,37.385931,-120.72654,Livingston,California,95334
0622740,622740,Los Banos Unified,93635-4800,37.053133,-120.83970,Los Banos,California,93635
0624360,624360,McSwain Union Elementary,95341-8893,37.301385,-120.56850,Merced,California,95341
0624600,624600,Merced City Elementary,95340-3723,37.307060,-120.47909,Merced,California,95340
0624660,624660,Merced Union High,95301-5100,37.369639,-120.57310,Atwater,California,95301
0630810,630810,Plainsburg Union Elementary,95341-9557,37.233601,-120.32486,Merced,California,95341
0630840,630840,Planada Elementary,95365-8050,37.292925,-120.31164,Planada,California,95365
0636960,636960,Snelling-Merced Falls Union Elementary,95369-0189,37.522511,-120.43393,Snelling,California,95369
0641880,641880,Weaver Union,95341-9583,37.291725,-120.47385,Merced,California,95341
0642960,642960,Winton,95388-0008,37.389467,-120.61470,Winton,California,95388
0616323,616323,Gustine Unified,95322-1127,37.249306,-121.01109,Gustine,California,95322
0624630,624630,Merced River Union Elementary,95388-9755,37.438549,-120.56842,Winton,California,95388
0600119,600119,Merced County ROP,95341-5908,37.297828,-120.48785,Merced,California,95341
0600033,600033,Dos Palos Oro Loma Joint Unified,93620-2303,36.984828,-120.62912,Dos Palos,California,93620
0600039,600039,Delhi Unified,95315-9455,37.429810,-120.77900,Delhi,California,95315
0691093,691093,Modoc County Office of Education,96101-3921,41.480773,-120.54388,Alturas,California,96101
0638520,638520,Surprise Valley Joint Unified,96104-0100,41.527830,-120.17847,Cedarville,California,96104
0625190,625190,Modoc Joint Unified,96101-3716,41.487362,-120.55462,Alturas,California,96101
0639940,639940,Tulelake Basin Joint Unified,96134-0640,41.950975,-121.47663,Tulelake,California,96134
0600081,600081,Modoc County ROP,96101,41.480773,-120.54388,Alturas,California,96101
0691052,691052,Mono County Office of Education,93546,37.639410,-118.96331,Mammoth Lakes,California,93546
0611870,611870,Eastern Sierra Unified,93517-0575,38.254915,-119.22650,Bridgeport,California,93517
0623530,623530,Mammoth Unified,93546,37.639500,-118.96754,Mammoth Lakes,California,93546
0600155,600155,Mono County ROC/P,93517,38.257379,-119.22854,Bridgeport,California,93517
0691021,691021,Monterey County Office of Education,93912-0851,36.654240,-121.63786,Salinas,California,93912
0601950,601950,Alisal Union,93905-2904,36.678066,-121.60499,Salinas,California,93905
0605730,605730,Bradley Union Elementary,93426-0060,35.862977,-120.80562,Bradley,California,93426
0607530,607530,Carmel Unified,93923-7942,36.542437,-121.89641,Carmel,California,93923
0608580,608580,Chualar Union,93925-0188,36.569560,-121.51415,Chualar,California,93925
0615870,615870,Graves Elementary,93908-9221,36.696107,-121.70044,Salinas,California,93908
0616080,616080,Greenfield Union Elementary,93927-4915,36.326052,-121.24778,Greenfield,California,93927
0619680,619680,King City Union,93930-2919,36.211820,-121.12774,King City,California,93930
0619650,619650,South Monterey County Joint Union High,93930-3326,36.208452,-121.13351,King City,California,93930
0620490,620490,Lagunita Elementary,93907-8438,36.770806,-121.60595,Salinas,California,93907
0625110,625110,Mission Union Elementary,93960-9656,36.401001,-121.37795,Soledad,California,93960
0625530,625530,Monterey Peninsula Unified,93940-2815,36.595326,-121.89877,Monterey,California,93940
0629370,629370,Pacific Grove Unified,93950-4900,36.612961,-121.91742,Pacific Grove,California,93950
0633930,633930,Salinas City Elementary,93901-1624,36.664306,-121.65712,Salinas,California,93901
0633980,633980,Salinas Union High,93901-1624,36.672264,-121.66552,Salinas,California,93901
0634050,634050,San Antonio Union Elementary,93932-5000,35.943293,-121.08325,Lockwood,California,93932
0634080,634080,San Ardo Union Elementary,93450-0170,36.018636,-120.90410,San Ardo,California,93450
0634770,634770,San Lucas Union Elementary,93954-9999,36.129194,-121.01651,San Lucas,California,93954
0635790,635790,Santa Rita Union Elementary,93906-4325,36.732533,-121.64900,Salinas,California,93906
0637710,637710,Spreckels Union Elementary,93962,36.625572,-121.64423,Spreckels,California,93962
0641610,641610,Washington Union Elementary,93908-9133,36.577075,-121.71784,Salinas,California,93908
0627590,627590,North Monterey County Unified,95012-9749,36.783401,-121.73429,Castroville,California,95012
0600120,600120,Mission Trails ROP,93905,36.695216,-121.63428,Salinas,California,93905
0600031,600031,Big Sur Unified,93920-9612,35.919810,-121.46593,Big Sur,California,93920
0637050,637050,Soledad Unified,93960-2745,36.427213,-121.31828,Soledad,California,93960
0600046,600046,Gonzales Unified,93926,36.511244,-121.44301,Gonzales,California,93926
0691022,691022,Napa County Office of Education,94559-3625,38.279743,-122.25421,Napa,California,94559
0607020,607020,Calistoga Joint Unified,94515-1605,38.583320,-122.58177,Calistoga,California,94515
0617760,617760,Howell Mountain Elementary,94508-9768,38.557559,-122.46034,Angwin,California,94508
0626640,626640,Napa Valley Unified,94558-4931,38.308615,-122.29592,Napa,California,94558
0631380,631380,Pope Valley Union Elementary,94567-0167,38.622565,-122.43980,Pope Valley,California,94567
0637830,637830,Saint Helena Unified,94574-2159,38.498197,-122.46092,St. Helena,California,94574
0600080,600080,Napa County ROP,94559,38.278083,-122.25656,Napa,California,94559
0691023,691023,Nevada County Office of Education,95945-9089,39.219081,-121.02845,Grass Valley,California,95945
0608340,608340,Chicago Park Elementary,95945-7906,39.145000,-120.97947,Grass Valley,California,95945
0608880,608880,Clear Creek Elementary,95949-7636,39.138958,-121.14489,Grass Valley,California,95949
0615780,615780,Grass Valley Elementary,95945-5409,39.222048,-121.07401,Grass Valley,California,95945
0626820,626820,Nevada City Elementary,95959-2952,39.253745,-121.03085,Nevada City,California,95959
0626880,626880,Nevada Joint Union High,95945-5024,39.240700,-121.05600,Grass Valley,California,95945
0630930,630930,Pleasant Ridge Union Elementary,95949-7706,39.051368,-121.06617,Grass Valley,California,95949
0630960,630960,Pleasant Valley Elementary,95946-9722,39.253213,-121.20488,Penn Valley,California,95946
0631950,631950,Ready Springs Union Elementary,95946-9722,39.253213,-121.20488,Penn Valley,California,95946
0640380,640380,Union Hill Elementary,95945-8730,39.208869,-121.03551,Grass Valley,California,95945
0600012,600012,Twin Ridges Elementary,95959-0529,39.372753,-120.99513,Nevada City,California,95959
0601427,601427,Penn Valley Union Elementary,95946-9625,39.196180,-121.18253,Penn Valley,California,95946
0691024,691024,Orange County Department of Education,92628-9050,33.672234,-117.88060,Costa Mesa,California,92628
0623010,623010,Lowell Joint,90603-3042,33.932412,-117.97661,Whittier,California,90603
0602610,602610,Anaheim Elementary,92805-5749,33.823023,-117.89769,Anaheim,California,92805
0602630,602630,Anaheim Union High,92801-5499,33.836593,-117.91430,Anaheim,California,92801
0605880,605880,Brea-Olinda Unified,92821-5732,33.917004,-117.88885,Brea,California,92821
0606360,606360,Buena Park Elementary,90620-1398,33.858890,-118.01327,Buena Park,California,90620
0607440,607440,Capistrano Unified,92675-4706,33.487446,-117.66386,San Juan Capistrano,California,92675
0608070,608070,Centralia Elementary,90620-2859,33.846658,-118.01809,Buena Park,California,90620
0610440,610440,Cypress Elementary,90630-2919,33.807308,-118.03171,Cypress,California,90630
0614220,614220,Fountain Valley Elementary,92708-3405,33.709081,-117.95349,Fountain Valley,California,92708
0614730,614730,Fullerton Elementary,92833-3938,33.866593,-117.95066,Fullerton,California,92833
0614760,614760,Fullerton Joint Union High,92833-2247,33.888529,-117.94332,Fullerton,California,92833
0614880,614880,Garden Grove Unified,92840-6351,33.777714,-117.95252,Garden Grove,California,92840
0618030,618030,Huntington Beach City Elementary,92646-7149,33.653496,-117.97447,Huntington Beach,California,92646
0618060,618060,Huntington Beach Union High,92649-1115,33.744332,-118.02720,Huntington Beach,California,92649
0620370,620370,Laguna Beach Unified,92651-2356,33.542460,-117.77838,Laguna Beach,California,92651
0620190,620190,La Habra City Elementary,90631-3769,33.935506,-117.95042,La Habra,California,90631
0623430,623430,Magnolia Elementary,92804-3203,33.824924,-117.98009,Anaheim,California,92804
0627240,627240,Newport-Mesa Unified,92626-4300,33.678544,-117.89386,Costa Mesa,California,92626
0628140,628140,Ocean View,92647-5569,33.711518,-118.02163,Huntington Beach,California,92647
0628650,628650,Orange Unified,92867-4434,33.810859,-117.82704,Orange,California,92867
0630660,630660,Placentia-Yorba Linda Unified,92870-5302,33.868170,-117.83792,Placentia,California,92870
0635310,635310,Santa Ana Unified,92701-6322,33.742577,-117.84643,Santa Ana,California,92701
0636030,636030,Savanna Elementary,92804-4711,33.814093,-118.01069,Anaheim,California,92804
0642150,642150,Westminster,92683-4482,33.757239,-117.99447,Westminster,California,92683
0633860,633860,Saddleback Valley Unified,92691-3142,33.621219,-117.68336,Mission Viejo,California,92691
0640150,640150,Tustin Unified,92780-3633,33.743130,-117.82489,Tustin,California,92780
0684500,684500,Irvine Unified,92604-4652,33.676395,-117.79625,Irvine,California,92604
0622590,622590,Los Alamitos Unified,90720-2264,33.812758,-118.06325,Los Alamitos,California,90720
0600121,600121,North Orange County ROP-Adult,92801,33.836581,-117.95016,Anaheim,California,92801
0600122,600122,College and Career Advantage,92675,33.479832,-117.67003,San Juan Capistrano,California,92675
0600123,600123,Coastline ROP,92626,33.671540,-117.89834,Costa Mesa,California,92626
0600124,600124,Central Orange County CTE Partnership (CTEp),92626,33.667990,-117.88003,Costa Mesa,California,92626
0691025,691025,Placer County Office of Education,95765-3750,38.814857,-121.28507,Rocklin,California,95765
0601680,601680,Ackerman Charter,95603-3147,38.935007,-121.05517,Auburn,California,95603
0602250,602250,Alta-Dutch Flat Union Elementary,95701-0958,39.207504,-120.80905,Alta,California,95701
0603480,603480,Auburn Union Elementary,95603-3745,38.905994,-121.07201,Auburn,California,95603
0609300,609300,Colfax Elementary,95713-9553,39.104766,-120.96076,Colfax,California,95713
0611490,611490,Dry Creek Joint Elementary,95747-9793,38.738635,-121.33656,Roseville,California,95747
0612660,612660,Emigrant Gap Elementary,95715-0087,No Data,No Data,Emigrant Gap,California,95715
0613080,613080,Eureka Union,95746-8808,38.736288,-121.19911,Granite Bay,California,95746
0613980,613980,Foresthill Union Elementary,95631-9216,39.020687,-120.81153,Foresthill,California,95631
0622560,622560,Loomis Union Elementary,95650-9043,38.830615,-121.20104,Loomis,California,95650
0627120,627120,Newcastle Elementary,95658-9723,38.872642,-121.13869,Newcastle,California,95658
0628500,628500,Ophir Elementary,95658-9660,No Data,No Data,Newcastle,California,95658
0630120,630120,Penryn Elementary,95663-0349,No Data,No Data,Penryn,California,95663
0630720,630720,Placer Hills Union Elementary,95722-0379,38.996037,-121.02399,Meadow Vista,California,95722
0630750,630750,Placer Union High,95603-9596,38.940131,-121.07994,Auburn,California,95603
0633600,633600,Roseville City Elementary,95678-2067,38.751856,-121.30460,Roseville,California,95678
0633630,633630,Roseville Joint Union High,95661-5520,38.729528,-121.25873,Roseville,California,95661
0638770,638770,Tahoe-Truckee Unified,96161-4953,39.325940,-120.21555,Truckee,California,96161
0642140,642140,Western Placer Unified,95648-1825,38.893185,-121.29158,Lincoln,California,95648
0600082,600082,Forty-Niner ROP,95603,38.906665,-121.08235,Auburn,California,95603
0600013,600013,Rocklin Unified,95677-2126,38.792730,-121.22162,Rocklin,California,95677
0601337,601337,SBE - Western Sierra Collegiate Academy,95765-3713,38.811611,-121.29815,Rocklin,California,95765
0691102,691102,Plumas County Office of Education,95971-6009,39.936108,-120.94384,Quincy,California,95971
0631170,631170,Plumas Unified,95971-6009,39.936108,-120.94384,Quincy,California,95971
0600083,600083,Plumas County ROP,95971,39.937172,-120.94414,Quincy,California,95971
0691026,691026,Riverside County Office of Education,92502-0868,33.978494,-117.38054,Riverside,California,92502
0600007,600007,California School for the Deaf-Riverside (State Special Schl),92506-4498,33.943666,-117.37881,Riverside,California,92506
0602430,602430,Alvord Unified,92879-7102,33.875294,-117.56643,Corona,California,92879
0603840,603840,Banning Unified,92220-4746,33.927254,-116.87845,Banning,California,92220
0604290,604290,Beaumont Unified,92223-0187,33.961884,-116.98416,Beaumont,California,92223
0609850,609850,Corona-Norco Unified,92860-1903,33.923213,-117.56109,Norco,California,92860
0611100,611100,Desert Center Unified,92239-0006,33.855120,-115.47808,Desert Center,California,92239
0611110,611110,Desert Sands Unified,92253-4000,33.702982,-116.27519,La Quinta,California,92253
0616920,616920,Hemet Unified,92545-3797,33.743742,-116.98901,Hemet,California,92545
0619260,619260,Jurupa Unified,92509-3966,33.999891,-117.47536,Jurupa Valley,California,92509
0624540,624540,Menifee Union,92586-6540,33.687592,-117.17522,Menifee,California,92586
0625800,625800,Moreno Valley Unified,92553-4916,33.918410,-117.21523,Moreno Valley,California,92553
0627780,627780,Nuview Union,92567-9706,33.821178,-117.13018,Nuevo,California,92567
0629550,629550,Palm Springs Unified,92264-3626,33.825114,-116.49466,Palm Springs,California,92264
0629640,629640,Palo Verde Unified,92225-1703,33.623579,-114.60618,Blythe,California,92225
0630180,630180,Perris Elementary,92570-2113,33.785506,-117.22711,Perris,California,92570
0630210,630210,Perris Union High,92570-2124,33.781978,-117.22730,Perris,California,92570
0633150,633150,Riverside Unified,92501-3810,33.974096,-117.37452,Riverside,California,92501
0633390,633390,Romoland Elementary,92548-9141,33.744908,-117.11862,Homeland,California,92548
0634440,634440,San Jacinto Unified,92583-5626,33.765556,-116.95869,San Jacinto,California,92583
0609070,609070,Coachella Valley Unified,92274-0847,33.638432,-116.14174,Thermal,California,92274
0600094,600094,Riverside County Office Of Education ROP,92502,33.978494,-117.38054,Riverside,California,92502
0600027,600027,Lake Elsinore Unified,92530-2723,33.682699,-117.33610,Lake Elsinore,California,92530
0600028,600028,Temecula Valley Unified,92592-6202,33.503394,-117.11800,Temecula,California,92592
0600029,600029,Murrieta Valley Unified,92562-7021,33.530387,-117.18512,Murrieta,California,92562
0691135,691135,Val Verde Unified,92571-3103,33.837382,-117.21404,Perris,California,92571
0691027,691027,Sacramento County Office of Education,95655-4116,38.566217,-121.29848,Mather,California,95655
0601422,601422,California Education Authority (CEA) Headquarters,95758,38.417666,-121.39982,Elk Grove,California,95758
0603060,603060,Arcohe Union Elementary,95638-8317,38.294654,-121.24197,Herald,California,95638
0610800,610800,Del Paso Heights Elementary,95838,No Data,No Data,Sacramento,California,95838
0612330,612330,Elk Grove Unified,95624-1801,38.411756,-121.37162,Elk Grove,California,95624
0612600,612600,Elverta Joint Elementary,95626-9217,38.712268,-121.46373,Elverta,California,95626
0613890,613890,Folsom-Cordova Unified,95742-6407,38.632798,-121.20000,Rancho Cordova,California,95742
0614790,614790,Galt Joint Union Elementary,95632-1771,38.252426,-121.29764,Galt,California,95632
0614820,614820,Galt Joint Union High,95632-1761,38.256259,-121.29801,Galt,California,95632
0615750,615750,Grant Joint Union High,95838-3697,No Data,No Data,Sacramento,California,95838
0627600,627600,North Sacramento Elementary,95815-3023,No Data,No Data,Sacramento,California,95815
0632790,632790,Rio Linda Union Elementary,95673-3430,No Data,No Data,Rio Linda,California,95673
0633110,633110,River Delta Joint Unified,94571-1651,38.157590,-121.69456,Rio Vista,California,94571
0633240,633240,Robla Elementary,95838-1633,38.662954,-121.44718,Sacramento,California,95838
0633840,633840,Sacramento City Unified,95824-4528,38.510479,-121.43962,Sacramento,California,95824
0634620,634620,San Juan Unified,95608-3056,38.633301,-121.34598,Carmichael,California,95608
0607900,607900,Center Joint Unified,95843-9116,38.721839,-121.39239,Antelope,California,95843
0600095,600095,Sacramento County ROP,95655,38.566239,-121.29618,Mather,California,95655
0600036,600036,Natomas Unified,95834-1905,38.647070,-121.50725,Sacramento,California,95834
0601332,601332,Twin Rivers Unified,95652-1024,38.659999,-121.38824,McClellan,California,95652
0601432,601432,SBE - Paramount Collegiate Academy,95821-6602,38.609630,-121.37041,Sacramento,California,95821
0691028,691028,San Benito County Office of Education,95023-3841,36.851587,-121.40491,Hollister,California,95023
0605190,605190,Bitterwater-Tully Elementary,93930,36.262663,-120.93319,King City,California,93930
0608640,608640,Cienega Union Elementary,95023-9697,36.720866,-121.35145,Hollister,California,95023
0617340,617340,Hollister,95023-9687,36.824401,-121.40203,Hollister,California,95023
0618810,618810,Jefferson Elementary,95043-9713,36.504267,-121.08366,Paicines,California,95043
0627480,627480,North County Joint Union Elementary,95023-9366,36.914270,-121.35905,Hollister,California,95023
0629770,629770,Panoche Elementary,95043-9707,36.606196,-120.86288,Paicines,California,95043
0634140,634140,San Benito High,95023-4708,36.840907,-121.40424,Hollister,California,95023
0637650,637650,Southside Elementary,95023-9637,36.806865,-121.36745,Hollister,California,95023
0639690,639690,Tres Pinos Union Elementary,95075,36.801435,-121.33608,Tres Pinos,California,95075
0642630,642630,Willow Grove Union Elementary,95043-0046,36.735200,-121.27990,Paicines,California,95043
0691136,691136,Aromas - San Juan Unified,95045-9557,36.882440,-121.55584,San Juan Bautista,California,95045
0691029,691029,San Bernardino County Office of Education,92415-0020,34.090135,-117.29411,San Bernardino,California,92415
0600056,600056,CEA San Bernardino Co,91710-9148,No Data,No Data,Chino,California,91710
0601710,601710,Adelanto Elementary,92301-0070,34.572054,-117.40651,Adelanto,California,92301
0602160,602160,Alta Loma Elementary,91701-5821,34.122372,-117.60006,Alta Loma,California,91701
0604020,604020,Barstow Unified,92311-2500,34.890217,-117.04750,Barstow,California,92311
0604230,604230,Bear Valley Unified,92315-1529,34.242855,-116.88114,Big Bear Lake,California,92315
0607950,607950,Central Elementary,91730-6863,34.102550,-117.57008,Rancho Cucamonga,California,91730
0608160,608160,Chaffey Joint Union High,91762-1698,34.081505,-117.65384,Ontario,California,91762
0608460,608460,Chino Valley Unified,91710-5029,34.008494,-117.70565,Chino,California,91710
0609390,609390,Colton Joint Unified,92324-1798,34.079698,-117.33378,Colton,California,92324
0616300,616300,Cucamonga Elementary,91730-4698,34.093230,-117.59354,Rancho Cucamonga,California,91730
0612960,612960,Etiwanda Elementary,91739-2218,34.144274,-117.51464,Etiwanda,California,91739
0613920,613920,Fontana Unified,92335-5571,34.076989,-117.45379,Fontana,California,92335
0616860,616860,Helendale Elementary,92342-0249,34.740386,-117.32908,Helendale,California,92342
0625860,625860,Morongo Unified,92277-0980,34.150172,-116.03654,Twentynine Palms,California,92277
0626220,626220,Mountain View Elementary,91732-3201,34.062519,-118.00960,El Monte,California,91732
0626340,626340,Mt. Baldy Joint Elementary,91759-0489,34.249902,-117.63855,Mt. Baldy,California,91759
0626760,626760,Needles Unified,92363-2623,34.838463,-114.61777,Needles,California,92363
0628470,628470,Ontario-Montclair,91762-3026,34.067031,-117.66666,Ontario,California,91762
0628950,628950,Oro Grande,92368-0386,34.595649,-117.33653,Oro Grande,California,92368
0632070,632070,Redlands Unified,92374-2234,34.070082,-117.18294,Redlands,California,92374
0632370,632370,Rialto Unified,92376-3530,34.128701,-117.37167,Rialto,California,92376
0632610,632610,Rim of the World Unified,92325,34.243413,-117.26310,Crestline,California,92325
0634170,634170,San Bernardino City Unified,92410-3017,34.113461,-117.29633,San Bernardino,California,92410
0639840,639840,Trona Joint Unified,93562-2101,35.771921,-117.36871,Trona,California,93562
0641040,641040,Victor Elementary,92395-5770,34.473440,-117.29844,Victorville,California,92395
0636972,636972,Victor Valley Union High,92395-3655,34.529042,-117.30746,Victorville,California,92395
0643560,643560,Yucaipa-Calimesa Joint Unified,92399-4544,34.021611,-117.04747,Yucaipa,California,92399
0603610,603610,Baker Valley Unified,92309,35.273206,-116.07239,Baker,California,92309
0636820,636820,Silver Valley Unified,92398-0847,34.894935,-116.88821,Yermo,California,92398
0636970,636970,Snowline Joint Unified,92329-6000,34.418981,-117.57287,Phelan,California,92329
0600130,600130,Colton-Redlands-Yucaipa ROP,92374,34.068289,-117.20579,Redlands,California,92374
0600131,600131,Baldy View ROP,91761,34.046444,-117.63674,Ontario,California,91761
0600132,600132,San Bernardino County ROP,92408,34.070023,-117.27045,San Bernardino,California,92408
0600014,600014,Hesperia Unified,92345-3482,34.424676,-117.32244,Hesperia,California,92345
0600015,600015,Lucerne Valley Unified,92356-7678,34.408040,-116.90672,Lucerne Valley,California,92356
0600016,600016,Upland Unified,91786-4764,34.098205,-117.65098,Upland,California,91786
0600017,600017,Apple Valley Unified,92308-7256,34.479814,-117.19010,Apple Valley,California,92308
0691030,691030,San Diego County Office of Education,92111-7319,32.771468,-117.17930,San Diego,California,92111
0602100,602100,Alpine Union Elementary,91901-2104,32.824651,-116.77533,Alpine,California,91901
0605670,605670,Bonsall Union Elementary,92003-5112,33.287143,-117.22078,Bonsall,California,92003
0605700,605700,Borrego Springs Unified,92004-0235,33.265514,-116.38373,Borrego Springs,California,92004
0606810,606810,Cajon Valley Union,92020-4012,32.795716,-116.95309,El Cajon,California,92020
0607470,607470,Cardiff Elementary,92007-2313,33.025044,-117.28220,Cardiff-by-the-Sea,California,92007
0608610,608610,Chula Vista Elementary,91910-6199,32.631751,-117.05914,Chula Vista,California,91910
0609870,609870,Coronado Unified,92118-1799,32.696202,-117.18727,Coronado,California,92118
0610710,610710,Dehesa Elementary,92019-2922,32.781239,-116.85120,El Cajon,California,92019
0610740,610740,Del Mar Union Elementary,92130-2657,32.923323,-117.23185,San Diego,California,92130
0612750,612750,Encinitas Union Elementary,92024-4308,33.036919,-117.23828,Encinitas,California,92024
0612880,612880,Escondido Union,92029-1935,33.118080,-117.11471,Escondido,California,92029
0612910,612910,Escondido Union High,92027-2741,33.136179,-117.05094,Escondido,California,92027
0613500,613500,Fallbrook Union Elementary,92028-2108,33.384131,-117.24808,Fallbrook,California,92028
0613530,613530,Fallbrook Union High,92028-4426,33.351718,-117.23707,Fallbrook,California,92028
0616230,616230,Grossmont Union High,92020-5664,32.780461,-116.98619,El Cajon,California,92020
0618730,618730,Jamul-Dulzura Union Elementary,91935-3324,32.730137,-116.85456,Jamul,California,91935
0619140,619140,Julian Union Elementary,92036,33.078843,-116.59386,Julian,California,92036
0619110,619110,Julian Union High,92036-0417,33.076465,-116.59451,Julian,California,92036
0620790,620790,Lakeside Union Elementary,93230-9560,36.240517,-119.62562,Hanford,California,93230
0620250,620250,La Mesa-Spring Valley,91942-9214,32.765013,-117.02207,La Mesa,California,91942
0621330,621330,Lemon Grove,91945-2515,32.738226,-117.02597,Lemon Grove,California,91945
0626100,626100,Mountain Empire Unified,91962-4003,32.733087,-116.49241,Pine Valley,California,91962
0626670,626670,National Elementary,91950-4827,32.673757,-117.09029,National City,California,91950
0630060,630060,Pauma Elementary,No Data,No Data,No Data,No Data,California,No Data
0631530,631530,Poway Unified,92128-3406,32.992958,-117.08126,San Diego,California,92128
0631710,631710,Ramona City Unified,92065-2348,33.039022,-116.86397,Ramona,California,92065
0631740,631740,Rancho Santa Fe Elementary,92067-0809,33.021758,-117.20694,Rancho Santa Fe,California,92067
0634320,634320,San Diego Unified,92103-2682,32.754010,-117.14816,San Diego,California,92103
0634380,634380,San Dieguito Union High,92024-3357,33.048709,-117.27631,Encinitas,California,92024
0635040,635040,San Pasqual Union Elementary,92027-6700,33.111418,-117.01127,Escondido,California,92027
0635880,635880,Santee,92071-2674,32.852891,-116.98324,Santee,California,92071
0635220,635220,San Ysidro Elementary,92173-1617,32.562857,-117.03856,San Ysidro,California,92173
0636990,636990,Solana Beach Elementary,92075-1241,32.989379,-117.26848,Solana Beach,California,92075
0637380,637380,South Bay Union,91932-2029,32.580200,-117.12022,Imperial Beach,California,91932
0637680,637680,Spencer Valley Elementary,92070-0159,33.097900,-116.64680,Santa Ysabel,California,92070
0638640,638640,Sweetwater Union High,91911-2812,32.610389,-117.07694,Chula Vista,California,91911
0640710,640710,Vallecitos Elementary,92028-9795,33.413917,-117.14954,Rainbow,California,92028
0640770,640770,Valley Center Union Elementary,No Data,No Data,No Data,No Data,California,No Data
0641190,641190,Vista Unified,92084-3404,33.224860,-117.22238,Vista,California,92084
0607500,607500,Carlsbad Unified,92009-1604,33.122838,-117.26674,Carlsbad,California,92009
0628250,628250,Oceanside Unified,92058-2326,33.205744,-117.36261,Oceanside,California,92058
0634880,634880,San Marcos Unified,92069-3712,33.142336,-117.16574,San Marcos,California,92069
0600138,600138,San Diego County ROP,92111,32.771468,-117.17930,San Diego,California,92111
0600042,600042,Warner Unified,92086-0008,33.292294,-116.68489,Warner Springs,California,92086
0600069,600069,Valley Center-Pauma Unified,92082-6599,33.236463,-117.02251,Valley Center,California,92082
0601322,601322,SBC - High Tech High,92106-6025,32.735144,-117.21734,San Diego,California,92106
0601426,601426,Bonsall Unified,92003-5112,33.284562,-117.21975,Bonsall,California,92003
0691111,691111,San Francisco County Office of Education,94102-5207,37.779519,-122.42190,San Francisco,California,94102
0634410,634410,San Francisco Unified,94102-5207,37.779519,-122.42190,San Francisco,California,94102
0600139,600139,San Francisco County ROP,94102,37.779198,-122.42216,San Francisco,California,94102
0600072,600072,SBE - Edison Charter Academy,94114-3405,37.754937,-122.42620,San Francisco,California,94114
0601411,601411,SBE - San Francisco Flex Academy,94122-2508,37.763243,-122.46382,San Francisco,California,94122
0601412,601412,SBE - Mission Preparatory,94112-1924,37.727194,-122.43478,San Francisco,California,94112
0691031,691031,San Joaquin County Office of Education,95206-3974,37.906523,-121.22915,Stockton,California,95206
0600057,600057,CEA San Joaquin Co,95213-9003,No Data,No Data,Stockton,California,95213
0603870,603870,Banta Elementary,95304-9413,37.756061,-121.37295,Tracy,California,95304
0612840,612840,Escalon Unified,95320-1753,37.799061,-120.99438,Escalon,California,95320
0617400,617400,Holt Union Elementary,95206-9618,No Data,No Data,Stockton,California,95206
0618840,618840,Jefferson Elementary,95043-9713,36.504267,-121.08366,Paicines,California,95043
0620820,620820,Lammersville Elementary,95391-1016,37.772869,-121.54052,Mountain House,California,95391
0621690,621690,Lincoln Unified,95207-4055,38.000321,-121.33516,Stockton,California,95207
0621810,621810,Linden Unified,95236-9584,38.021787,-121.08110,Linden,California,95236
0622230,622230,Lodi Unified,95240-3148,38.123380,-121.24986,Lodi,California,95240
0623610,623610,Manteca Unified,95337-8381,37.812089,-121.18863,Manteca,California,95337
0626970,626970,New Hope Elementary,95686-0238,38.229239,-121.42444,Thornton,California,95686
0627030,627030,New Jerusalem Elementary,95304-8824,37.668540,-121.32444,Tracy,California,95304
0627930,627930,Oak View Union Elementary,95220-9624,38.218334,-121.22718,Acampo,California,95220
0632880,632880,Ripon Unified,95366-2404,37.741482,-121.12843,Ripon,California,95366
0638010,638010,Stockton Unified,95203-3100,37.950914,-121.29687,Stockton,California,95203
0610990,610990,Delta Island Union Elementary,95206-9632,No Data,No Data,Stockton,California,95206
0600140,600140,San Joaquin County ROP,95202,37.953908,-121.28843,Stockton,California,95202
0600047,600047,Tracy Joint Unified,95376-2291,37.747092,-121.45019,Tracy,California,95376
0601410,601410,Lammersville Joint Unified,95391-7900,37.775845,-121.53468,Mountain House,California,95391
0602571,602571,Banta Unified,95304-9413,37.755987,-121.37429,Tracy,California,95304
0691032,691032,San Luis Obispo County Office of Education,93405-7816,35.333702,-120.74261,San Luis Obispo,California,93405
0600058,600058,CEA San Luis Obispo Co,93447-7008,No Data,No Data,Paso Robles,California,93447
0603300,603300,Atascadero Unified,93422-4234,35.492621,-120.66579,Atascadero,California,93422
0607840,607840,Cayucos Elementary,93430-1036,35.451495,-120.90447,Cayucos,California,93430
0623080,623080,Lucia Mar Unified,93420-4000,35.115363,-120.57605,Arroyo Grande,California,93420
0631020,631020,Pleasant Valley Joint Union Elementary,93451-9576,35.710009,-120.61380,San Miguel,California,93451
0634800,634800,San Luis Coastal Unified,93401-3062,35.279587,-120.64949,San Luis Obispo,California,93401
0635010,635010,San Miguel Joint Union,93451-9107,35.755601,-120.69711,San Miguel,California,93451
0636450,636450,Shandon Joint Unified,93461-0079,35.655452,-120.37732,Shandon,California,93461
0639000,639000,Templeton Unified,93465-9419,35.544504,-120.71086,Templeton,California,93465
0600141,600141,Santa Lucia ROP,93401,35.282415,-120.65256,San Luis Obispo,California,93401
0600048,600048,Paso Robles Joint Unified,93446-4858,35.615754,-120.67089,Paso Robles,California,93446
0600049,600049,Coast Unified,93428-3506,35.562752,-121.09189,Cambria,California,93428
0691033,691033,San Mateo County Office of Education,94065-1064,37.525926,-122.26363,Redwood City,California,94065
0604200,604200,Bayshore Elementary,94014-1603,37.705371,-122.41424,Daly City,California,94014
0604530,604530,Belmont-Redwood Shores Elementary,94002-2943,37.509508,-122.31924,Belmont,California,94002
0606060,606060,Brisbane Elementary,94005-1342,37.686086,-122.40705,Brisbane,California,94005
0606480,606480,Burlingame Elementary,94010-4509,37.591883,-122.38609,Burlingame,California,94010
0606780,606780,Cabrillo Unified,94019-1636,37.464204,-122.43542,Half Moon Bay,California,94019
0617190,617190,Hillsborough City Elementary,94010-6818,37.562812,-122.33789,Hillsborough,California,94010
0618870,618870,Jefferson Elementary,95043-9713,36.504267,-121.08366,Paicines,California,95043
0618930,618930,Jefferson Union High,94015-3868,37.680133,-122.48389,Daly City,California,94015
0620460,620460,Pacifica,94044-3052,37.613666,-122.48455,Pacifica,California,94044
0620220,620220,La Honda-Pescadero Unified,94060-8844,37.246825,-122.36358,Pescadero,California,94060
0622380,622380,Las Lomitas Elementary,94025-6706,37.428972,-122.20105,Menlo Park,California,94025
0624570,624570,Menlo Park City Elementary,94027-3102,37.464770,-122.18512,Atherton,California,94027
0624900,624900,Millbrae Elementary,94030-1600,37.598718,-122.40657,Millbrae,California,94030
0631470,631470,Portola Valley Elementary,94028-8040,37.368600,-122.21280,Portola Valley,California,94028
0631860,631860,Ravenswood City Elementary,94303-1703,37.463439,-122.14389,East Palo Alto,California,94303
0632130,632130,Redwood City Elementary,94063-1727,37.488610,-122.22740,Redwood City,California,94063
0634230,634230,San Bruno Park Elementary,94066-4298,37.622230,-122.41575,San Bruno,California,94066
0634290,634290,San Carlos Elementary,94070-4129,37.501270,-122.24759,San Carlos,California,94070
0634920,634920,San Mateo-Foster City,94404-1107,37.565758,-122.27319,Foster City,California,94404
0634980,634980,San Mateo Union High,94401-1795,37.579057,-122.33298,San Mateo,California,94401
0636390,636390,Sequoia Union High,94062-1041,37.481698,-122.23667,Redwood City,California,94062
0637530,637530,South San Francisco Unified,94080-4423,37.649612,-122.42816,South San Francisco,California,94080
0643140,643140,Woodside Elementary,94062-2552,37.427582,-122.25839,Woodside,California,94062
0600142,600142,San Mateo County ROP,94065-1064,37.525926,-122.26363,Redwood City,California,94065
0601334,601334,SBE - Everest Public High,94063,37.473774,-122.20386,Redwood City,California,94063
0691034,691034,Santa Barbara County Office of Education,93110-1042,34.450750,-119.77250,Santa Barbara,California,93110
0603720,603720,Ballard Elementary,93463-9709,34.638701,-120.11412,Solvang,California,93463
0605280,605280,Blochman Union Elementary,93454-9666,34.865969,-120.29491,Santa Maria,California,93454
0605580,605580,Santa Maria-Bonita,93454-6230,34.945262,-120.43149,Santa Maria,California,93454
0606330,606330,Buellton Union Elementary,93427-6801,34.618766,-120.19899,Buellton,California,93427
0607560,607560,Carpinteria Unified,93013-1414,34.403397,-119.51612,Carpinteria,California,93013
0607710,607710,Casmalia Elementary,93429-0119,No Data,No Data,Casmalia,California,93429
0609270,609270,Cold Spring Elementary,93108-1909,34.441042,-119.66101,Santa Barbara,California,93108
0609330,609330,College Elementary,93460-0188,34.615776,-120.08270,Santa Ynez,California,93460
0615510,615510,Goleta Union Elementary,93117-1732,34.447138,-119.83062,Goleta,California,93117
0616260,616260,Guadalupe Union Elementary,93434-0788,34.969020,-120.56945,Guadalupe,California,93434
0617490,617490,Hope Elementary,93110-1563,34.444227,-119.75391,Santa Barbara,California,93110
0622410,622410,Lompoc Unified,93436-3516,34.658531,-120.44885,Lompoc,California,93436
0622620,622620,Los Alamos Elementary,93440-0318,34.739477,-120.27971,Los Alamos,California,93440
0622920,622920,Los Olivos Elementary,93441-0208,34.665479,-120.11080,Los Olivos,California,93441
0625500,625500,Montecito Union Elementary,93108-2131,34.433564,-119.63204,Santa Barbara,California,93108
0628710,628710,Orcutt Union Elementary,93455-5300,34.861314,-120.44218,Orcutt,California,93455
0635360,635360,Santa Barbara Elementary,93101-2232,34.421330,-119.69637,Santa Barbara,California,93101
0635370,635370,Santa Barbara Secondary,93101-2232,34.421330,-119.69637,Santa Barbara,California,93101
0635670,635670,Santa Maria Joint Union High,93455-1507,34.912841,-120.45403,Santa Maria,California,93455
0635850,635850,Santa Ynez Valley Union High,93463-9417,34.608075,-120.09976,Solvang,California,93463
0637110,637110,Solvang Elementary,93463-2690,34.597678,-120.14145,Solvang,California,93463
0641220,641220,Vista del Mar Union,93117-9728,34.508277,-120.22966,Gaviota,California,93117
0600133,600133,Santa Barbara County ROP,93160,34.444227,-119.75391,Santa Barbara,California,93160
0600009,600009,Cuyama Joint Unified,91901-9719,34.932738,-119.60850,Cuyama,California,91901
0601414,601414,Santa Barbara Unified,93101-2232,34.421398,-119.69638,Santa Barbara,California,93101
0691035,691035,Santa Clara County Office of Education,95131-2304,37.383703,-121.90134,San Jose,California,95131
0602310,602310,Alum Rock Union Elementary,95127-2322,37.369374,-121.83409,San Jose,California,95127
0604800,604800,Berryessa Union Elementary,95131-2305,37.381793,-121.90077,San Jose,California,95131
0607140,607140,Cambrian,95124-3312,37.259016,-121.94053,San Jose,California,95124
0607200,607200,Campbell Union,95008-2086,37.288995,-121.94732,Campbell,California,95008
0607230,607230,Campbell Union High,95124-2009,37.264937,-121.93145,San Jose,California,95124
0610290,610290,Cupertino Union,94087-3050,37.349343,-122.05094,Sunnyvale,California,94087
0611820,611820,East Side Union High,95133-1316,37.379531,-121.85251,San Jose,California,95133
0613140,613140,Evergreen Elementary,95148-3022,37.324773,-121.78710,San Jose,California,95148
0614370,614370,Franklin-McKinley Elementary,95112-2617,37.314352,-121.84863,San Jose,California,95112
0614430,614430,Fremont Union High,94087-2556,37.352285,-122.03532,Sunnyvale,California,94087
0615180,615180,Gilroy Unified,95020-7313,37.015592,-121.56213,Gilroy,California,95020
0620700,620700,Lakeside Joint,95033-9587,37.193221,-122.01823,Los Gatos,California,95033
0622350,622350,Loma Prieta Joint Union Elementary,95033-4054,37.124979,-121.93844,Los Gatos,California,95033
0622650,622650,Los Altos Elementary,94024-4030,37.371247,-122.10924,Los Altos,California,94024
0622830,622830,Los Gatos Union Elementary,95032-4510,37.234498,-121.96660,Los Gatos,California,95032
0622800,622800,Los Gatos-Saratoga Union High,95030-3308,37.239412,-121.97490,Los Gatos,California,95030
0623130,623130,Luther Burbank,95128-1931,37.323556,-121.92670,San Jose,California,95128
0625440,625440,Montebello Elementary,95014-5431,No Data,No Data,Cupertino,California,95014
0625770,625770,Moreland,95130-1709,37.286527,-121.98479,San Jose,California,95130
0625830,625830,Morgan Hill Unified,95037-7110,37.111744,-121.63501,Morgan Hill,California,95037
0626280,626280,Mountain View Whisman,94043-3133,37.402689,-122.08340,Mountain View,California,94043
0626310,626310,Mountain View-Los Altos Union High,94040-4527,37.361327,-122.06684,Mountain View,California,94040
0626400,626400,Mount Pleasant Elementary,95148-1300,37.348703,-121.80029,San Jose,California,95148
0627810,627810,Oak Grove Elementary,95119-1204,37.231743,-121.78474,San Jose,California,95119
0628680,628680,Orchard Elementary,95131-1602,37.388461,-121.90020,San Jose,California,95131
0629610,629610,Palo Alto Unified,94306-1005,37.433882,-122.15519,Palo Alto,California,94306
0634590,634590,San Jose Unified,95126-2736,37.335490,-121.91100,San Jose,California,95126
0635430,635430,Santa Clara Unified,95051-0397,37.357076,-121.99548,Santa Clara,California,95051
0635910,635910,Saratoga Union Elementary,95070-6020,37.255759,-122.03142,Saratoga,California,95070
0638460,638460,Sunnyvale,94088-3217,37.374270,-122.04012,Sunnyvale,California,94088
0640320,640320,Union Elementary,95124-5434,37.246012,-121.93134,San Jose,California,95124
0642390,642390,Whisman Elementary,94043-3133,No Data,No Data,Mountain View,California,94043
0624500,624500,Milpitas Unified,95035-5707,37.435890,-121.88351,Milpitas,California,95035
0600135,600135,Metro Education,95136,37.279254,-121.86655,San Jose,California,95136
0600137,600137,Santa Clara County ROP,94087,37.352281,-122.03508,Sunnyvale,California,94087
0601343,601343,North County Regional Occupational Center/Program (ROC/P),94087-2556,37.352285,-122.03532,Sunnyvale,California,94087
0601437,601437,SBE - Wei Yu International Charter,95117-2833,37.301428,-121.96563,San Jose,California,95117
0691036,691036,Santa Cruz County Office of Education,95060-2115,36.987618,-122.03906,Santa Cruz,California,95060
0600059,600059,CEA Santa Cruz Co,95060,No Data,No Data,Santa Cruz,California,95060
0605640,605640,Bonny Doon Union Elementary,95060-9711,37.062499,-122.14815,Santa Cruz,California,95060
0616560,616560,Happy Valley Elementary,95065-9775,37.023466,-121.98941,Santa Cruz,California,95065
0621990,621990,Live Oak Elementary,95062-1756,36.984107,-121.98617,Santa Cruz,California,95062
0626070,626070,Mountain Elementary,95073-9752,37.027366,-121.94927,Soquel,California,95073
0629340,629340,Pacific Elementary,93920,No Data,No Data,Big Sur,California,93920
0629490,629490,Pajaro Valley Unified,95076-1300,36.939578,-121.77011,Watsonville,California,95076
0634740,634740,San Lorenzo Valley Unified,95005-9403,37.084648,-122.07481,Ben Lomond,California,95005
0635590,635590,Santa Cruz City Elementary,95060-3747,36.977007,-122.02918,Santa Cruz,California,95060
0635600,635600,Santa Cruz City High,95060-3747,36.977007,-122.02918,Santa Cruz,California,95060
0637290,637290,Soquel Union Elementary,95010-3618,36.978986,-121.94821,Capitola,California,95010
0600143,600143,Santa Cruz County ROP,95060,36.988003,-122.03902,Santa Cruz,California,95060
0600043,600043,Scotts Valley Unified,95066-4792,37.042654,-122.02782,Scotts Valley,California,95066
0691037,691037,Shasta County Office of Education,96001-1513,40.580342,-122.40089,Redding,California,96001
0602700,602700,Anderson Union High,96007-3313,40.441352,-122.30591,Anderson,California,96007
0604350,604350,Bella Vista Elementary,96008-9792,40.639200,-122.23260,Bella Vista,California,96008
0605220,605220,Black Butte Union Elementary,96088-9652,40.533761,-121.93133,Shingletown,California,96088
0607680,607680,Cascade Union Elementary,96007-3226,40.448035,-122.30637,Anderson,California,96007
0607770,607770,Castle Rock Union Elementary,96017-0180,41.142800,-122.31680,Castella,California,96017
0609450,609450,Columbia Elementary,96003-7995,40.643371,-122.32918,Redding,California,96003
0609990,609990,Cottonwood Union Elementary,96022-8808,40.385779,-122.27650,Cottonwood,California,96022
0612810,612810,Enterprise Elementary,96002-0749,40.578347,-122.34999,Redding,California,96002
0613470,613470,Fall River Joint Unified,96013-4054,40.883213,-121.67232,Burney,California,96013
0614490,614490,French Gulch-Whiskeytown Elementary,96033-0368,40.708856,-122.63475,French Gulch,California,96033
0615690,615690,Grant Elementary,96001-9722,40.550299,-122.47386,Redding,California,96001
0616570,616570,Happy Valley Union Elementary,96007-8241,40.474366,-122.45391,Anderson,California,96007
0618160,618160,"Igo, Ono, Platina Union Elementary",96047-0250,40.502823,-122.54139,Igo,California,96047
0618270,618270,Indian Springs Elementary,96011-0070,41.016000,-121.90670,Big Bend,California,96011
0619200,619200,Junction Elementary,96073-8713,40.538924,-122.23865,Palo Cedro,California,96073
0624930,624930,Millville Elementary,96062-9619,40.551189,-122.16938,Millville,California,96062
0627510,627510,North Cow Creek Elementary,96073-9742,40.592849,-122.23420,Palo Cedro,California,96073
0627870,627870,Oak Run Elementary,96069-0048,40.684729,-122.03021,Oak Run,California,96069
0629280,629280,Pacheco Union Elementary,96002-4069,40.505552,-122.33016,Redding,California,96002
0632040,632040,Redding Elementary,96001-4535,40.531590,-122.37417,Redding,California,96001
0636570,636570,Shasta Union Elementary,96087-3473,40.590700,-122.48750,Shasta,California,96087
0636600,636600,Shasta Union High,96001-0337,40.586623,-122.40339,Redding,California,96001
0642420,642420,Whitmore Union Elementary,96096-0010,40.631086,-121.90605,WHITMORE,California,96096
0627040,627040,Mountain Union Elementary,96065-0368,40.837115,-121.92614,Montgomery Creek,California,96065
0600125,600125,Shasta-Trinity ROP,96001,40.547422,-122.38603,Redding,California,96001
0614950,614950,Gateway Unified,96003-1446,40.630997,-122.38784,Redding,California,96003
0691120,691120,Sierra County Office of Education,96118-0955,39.680042,-120.24916,Loyalton,California,96118
0636780,636780,Sierra-Plumas Joint Unified,96118-0955,39.680042,-120.24916,Loyalton,California,96118
0600126,600126,WIlliam (R) Rouse ROP,96118,39.675871,-120.24279,Loyalton,California,96118
0691038,691038,Siskiyou County Office of Education,96097-3110,41.729061,-122.64267,Yreka,California,96097
0604980,604980,Big Springs Union Elementary,96064-9707,41.595834,-122.33279,Montague,California,96064
0605490,605490,Bogus Elementary,96064-9434,41.938994,-122.35352,Montague,California,96064
0606690,606690,Butteville Union Elementary,96094-4489,41.457298,-122.43146,Weed,California,96094
0610980,610980,Delphic Elementary,96064-9234,41.705464,-122.56408,Montague,California,96064
0611670,611670,Dunsmuir Elementary,96025-1902,41.233142,-122.27135,Dunsmuir,California,96025
0611700,611700,Dunsmuir Joint Union High,96025-2202,41.210735,-122.27626,Dunsmuir,California,96025
0613000,613000,Etna Union Elementary,96027-0490,No Data,No Data,Etna,California,96027
0613020,613020,Etna Union High,96032,No Data,No Data,Fort Jones,California,96032
0614040,614040,Forks of Salmon Elementary,96031-9703,41.259744,-123.32682,Forks Of Salmon,California,96031
0614100,614100,Fort Jones Union Elementary,96032-0249,No Data,No Data,Fort Jones,California,96032
0614970,614970,Gazelle Union Elementary,96034-0006,41.519736,-122.52373,Gazelle,California,96034
0616110,616110,Grenada Elementary,96038-0010,41.645687,-122.52981,Grenada,California,96038
0616530,616530,Happy Camp Union Elementary,96039-0467,41.795810,-123.37292,Happy Camp,California,96039
0617620,617620,Hornbrook Elementary,96044,41.911322,-122.56122,Hornbrook,California,96044
0619230,619230,Junction Elementary,96073-8713,40.538924,-122.23865,Palo Cedro,California,96073
0619920,619920,Klamath River Union Elementary,96050-9204,41.822204,-122.97219,Horse Creek,California,96050
0621960,621960,Little Shasta Elementary,96064-9699,41.715991,-122.44506,Montague,California,96064
0624210,624210,McCloud Union Elementary,96057-0700,41.254390,-122.13105,McCloud,California,96057
0625380,625380,Montague Elementary,96064-0308,41.727544,-122.52206,Montague,California,96064
0626040,626040,Mt. Shasta Union Elementary,96067-2315,41.319142,-122.30884,Mount Shasta,California,96067
0631650,631650,Quartz Valley Elementary,96032-9754,No Data,No Data,Fort Jones,California,96032
0636060,636060,Sawyers Bar Elementary,96027-9404,No Data,No Data,Sawyers Bar,California,96027
0636240,636240,Seiad Elementary,96086-0647,41.838551,-123.18893,Seiad Valley,California,96086
0636940,636940,Siskiyou Union High,96067-2047,41.320258,-122.30497,Mount Shasta,California,96067
0641980,641980,Weed Union Elementary,96094-2431,41.428016,-122.37995,Weed,California,96094
0642600,642600,Willow Creek Elementary,96064-9229,41.847990,-122.46749,Montague,California,96064
0643380,643380,Yreka Union Elementary,96097-3369,41.727892,-122.63900,Yreka,California,96097
0643410,643410,Yreka Union High,96097-2365,41.738746,-122.63707,Yreka,California,96097
0606580,606580,Butte Valley Unified,96023,41.964149,-121.92438,Dorris,California,96023
0600127,600127,Siskiyou ROP,96097,41.738759,-122.63742,Yreka,California,96097
0600159,600159,Scott Valley Unified,96032,41.606964,-122.84153,Fort Jones,California,96032
0691122,691122,Solano County Office of Education,94534-1658,38.217129,-122.14320,Fairfield,California,94534
0604620,604620,Benicia Unified,94510-3437,38.055399,-122.16146,Benicia,California,94510
0611280,611280,Dixon Unified,95620-3447,38.444680,-121.82249,Dixon,California,95620
0613360,613360,Fairfield-Suisun Unified,94534-1072,38.274478,-122.05247,Fairfield,California,94534
0639630,639630,Travis Unified,94533-9710,38.282898,-121.96051,Fairfield,California,94533
0640590,640590,Vacaville Unified,95687-3546,38.365223,-121.95385,Vacaville,California,95687
0640740,640740,Vallejo City Unified,94592-1177,38.102251,-122.27597,Vallejo,California,94592
0600128,600128,Solano County ROP,94533,38.271399,-122.00671,Fairfield,California,94533
0601340,601340,SBE - Dixon Montessori Charter,95620,38.447984,-121.83186,Dixon,California,95620
0691040,691040,Sonoma County Office of Education,95403-1082,38.511957,-122.79985,Santa Rosa,California,95403
0601890,601890,Alexander Valley Union Elementary,95448-9020,38.655489,-122.79218,Healdsburg,California,95448
0602670,602670,West Sonoma County Union High,95472-3431,38.406075,-122.82260,Sebastopol,California,95472
0604380,604380,Bellevue Union,95407-2764,38.397485,-122.73509,Santa Rosa,California,95407
0604650,604650,Bennett Valley Union Elementary,95405-8310,38.428442,-122.67306,Santa Rosa,California,95405
0608700,608700,Cinnabar Elementary,94952-1226,38.257810,-122.66326,Petaluma,California,94952
0608970,608970,Cloverdale Unified,95425-3244,38.810308,-123.02178,Cloverdale,California,95425
0611610,611610,Dunham Elementary,94952-9202,38.321292,-122.75843,Petaluma,California,94952
0614010,614010,Forestville Union Elementary,95436-9699,38.472109,-122.88747,Forestville,California,95436
0614130,614130,Fort Ross Elementary,95421-9636,38.556170,-123.26665,Cazadero,California,95421
0615150,615150,Geyserville Unified,95441-9670,38.722005,-122.89123,Geyserville,California,95441
0615840,615840,Gravenstein Union Elementary,95472-5750,38.370122,-122.80548,Sebastopol,California,95472
0616320,616320,Guerneville Elementary,95446-9559,38.507090,-122.99708,Guerneville,California,95446
0616620,616620,Harmony Union Elementary,95465-0279,38.388586,-122.93219,Occidental,California,95465
0617580,617580,Horicon Elementary,95412-9713,38.709318,-123.33699,Annapolis,California,95412
0619410,619410,Kenwood,95452-0220,38.415174,-122.55528,Kenwood,California,95452
0621540,621540,Liberty Elementary,94952,38.281953,-122.70749,Petaluma,California,94952
0624000,624000,Mark West Union Elementary,95404-1101,38.500082,-122.74080,Santa Rosa,California,95404
0625410,625410,Monte Rio Union Elementary,95462-0340,38.472110,-123.01480,Monte Rio,California,95462
0625650,625650,Montgomery Elementary,95421-0286,38.538923,-123.09150,Cazadero,California,95421
0627840,627840,Oak Grove Union Elementary,95401-5566,38.437952,-122.80303,Santa Rosa,California,95401
0628320,628320,Old Adobe Union,94954-4450,38.246034,-122.61086,Petaluma,California,94954
0630230,630230,Petaluma City Elementary,94952-2567,38.228942,-122.64365,Petaluma,California,94952
0630250,630250,Petaluma Joint Union High,94952-2567,38.228942,-122.64365,Petaluma,California,94952
0630450,630450,Piner-Olivet Union Elementary,95403-1919,38.473582,-122.74661,Santa Rosa,California,95403
0632340,632340,Kashia Elementary,95480-0129,38.656803,-123.34173,Stewarts Point,California,95480
0632640,632640,Rincon Valley Union Elementary,95405-7020,38.444319,-122.67522,Santa Rosa,California,95405
0633510,633510,Roseland,95407-7433,38.422054,-122.73460,Santa Rosa,California,95407
0635810,635810,Santa Rosa Elementary,95401-4118,38.442331,-122.74545,Santa Rosa,California,95401
0635830,635830,Santa Rosa High,95401-4320,38.449171,-122.72421,Santa Rosa,California,95401
0636180,636180,Sebastopol Union Elementary,95472-3214,38.400921,-122.83097,Sebastopol,California,95472
0637200,637200,Sonoma Valley Unified,95476-3703,38.315865,-122.49501,Sonoma,California,95476
0640230,640230,Twin Hills Union Elementary,95472-3917,38.389205,-122.85142,Sebastopol,California,95472
0640260,640260,Two Rock Union,94952-9639,38.255671,-122.77843,Petaluma,California,94952
0641790,641790,Waugh Elementary,94954-6837,38.265860,-122.64466,Petaluma,California,94954
0642270,642270,West Side Union Elementary,95448-9476,38.579663,-122.88363,Healdsburg,California,95448
0642750,642750,Wilmar Union Elementary,94952-8023,38.245349,-122.68599,Petaluma,California,94952
0643200,643200,Wright Elementary,95407-6550,38.419073,-122.77588,Santa Rosa,California,95407
0609940,609940,Cotati-Rohnert Park Unified,94928-3316,38.338763,-122.69997,Rohnert Park,California,94928
0600129,600129,Sonoma County ROP,95403,38.511957,-122.79985,Santa Rosa,California,95403
0600034,600034,Windsor Unified,95492-9217,38.549616,-122.81372,Windsor,California,95492
0600044,600044,Healdsburg Unified,95448-3528,38.621519,-122.86798,Healdsburg,California,95448
0601338,601338,SBE - River Montessori Elementary Charter,94954,38.226149,-122.58665,Petaluma,California,94954
0691041,691041,Stanislaus County Office of Education,95354-2338,37.639673,-120.99649,Modesto,California,95354
0608130,608130,Ceres Unified,95307-3301,37.590198,-120.94955,Ceres,California,95307
0608250,608250,Chatom Union,95380-9352,37.481775,-120.93195,Turlock,California,95380
0611040,611040,Denair Unified,95316-9502,37.523901,-120.80310,Denair,California,95316
0612690,612690,Empire Union Elementary,95357-1329,37.639072,-120.92997,Modesto,California,95357
0615810,615810,Gratton Elementary,95316-9762,37.572888,-120.79212,Denair,California,95316
0616650,616650,Hart-Ransom Union Elementary,95358-8577,37.667211,-121.06630,Modesto,California,95358
0617160,617160,Hickman Community Charter,95323-9634,37.620800,-120.74860,Hickman,California,95323
0619620,619620,Keyes Union,95328-0549,37.560687,-120.90365,Keyes,California,95328
0620010,620010,Knights Ferry Elementary,95361-2040,37.820090,-120.67293,Knights Ferry,California,95361
0620160,620160,La Grange Elementary,95329-0066,37.661896,-120.46078,La Grange,California,95329
0625130,625130,Modesto City Elementary,95351-2699,37.639656,-121.01259,Modesto,California,95351
0625150,625150,Modesto City High,95351-2699,37.639261,-121.01241,Modesto,California,95351
0629790,629790,Paradise Elementary,95358-8337,37.623867,-121.05567,Modesto,California,95358
0630030,630030,Patterson Joint Unified,95363-0547,37.473753,-121.15988,Patterson,California,95363
0633210,633210,Roberts Ferry Union Elementary,95386-9501,37.638505,-120.61875,Waterford,California,95386
0633900,633900,Salida Union Elementary,95368-9226,37.708080,-121.07761,Salida,California,95368
0636660,636660,Shiloh Elementary,95358-9253,37.608931,-121.11805,Modesto,California,95358
0637950,637950,Stanislaus Union Elementary,95350-1910,37.677721,-121.02912,Modesto,California,95350
0638670,638670,Sylvan Union Elementary,95350-1517,37.688991,-120.98572,Modesto,California,95350
0640050,640050,Turlock Joint Elementary,95381-1105,No Data,No Data,Turlock,California,95381
0640080,640080,Turlock Joint Union High,95381-1105,No Data,No Data,Turlock,California,95381
0640800,640800,Valley Home Joint Elementary,95361-7773,37.830501,-120.91516,Valley Home,California,95361
0627200,627200,Newman-Crows Landing Unified,95360-1199,37.316429,-121.02349,Newman,California,95360
0600144,600144,Yosemite ROP,95354,37.639359,-120.99615,Modesto,California,95354
0600060,600060,Hughson Unified,95326-9625,37.601538,-120.85907,Hughson,California,95326
0600061,600061,Riverbank Unified,95367-2345,37.736179,-120.92901,Riverbank,California,95367
0600062,600062,Oakdale Joint Unified,95361-3935,37.765337,-120.84731,Oakdale,California,95361
0600063,600063,Waterford Unified,95386-9158,37.640088,-120.77385,Waterford,California,95386
0600158,600158,Turlock Unified,95380-4161,37.500141,-120.82714,Turlock,California,95380
0601342,601342,SBE - Aspire Vanguard College Preparatory Academy,94606,37.782367,-122.24028,Oakland,California,94606
0691042,691042,Sutter County Office of Education,95993-8961,39.139109,-121.65173,Yuba City,California,95993
0606090,606090,Brittan Elementary,95982-2430,39.160930,-121.74646,Sutter,California,95982
0606100,606100,Browns Elementary,95674-9618,38.941208,-121.52453,Rio Oso,California,95674
0611780,611780,East Nicolaus Joint Union High,95659-9605,38.910325,-121.54492,Nicolaus,California,95659
0614340,614340,Franklin Elementary,95993-9629,39.127736,-121.68902,Yuba City,California,95993
0622050,622050,Live Oak Unified,95953-2469,39.276024,-121.65524,Live Oak,California,95953
0623800,623800,Marcum-Illinois Union Elementary,95659-9748,38.811091,-121.54347,East Nicolaus,California,95659
0624690,624690,Meridian Elementary,95957-0160,39.143317,-121.90961,Meridian,California,95957
0627750,627750,Nuestro Elementary,95953-9401,39.187400,-121.67864,Live Oak,California,95953
0630900,630900,Pleasant Grove Joint Union,95668-9723,38.823574,-121.51757,Pleasant Grove,California,95668
0638610,638610,Sutter Union High,95982,39.166952,-121.75589,Sutter,California,95982
0642900,642900,Winship-Robbins,95676,38.871141,-121.70325,Robbins,California,95676
0643470,643470,Yuba City Unified,95991-5074,39.131080,-121.61355,Yuba City,California,95991
0600145,600145,Tri-County ROP,95993,39.139013,-121.65302,Yuba City,California,95993
0691043,691043,Tehama County Department of Education,96080-0689,40.178330,-122.24496,Red Bluff,California,96080
0602760,602760,Antelope Elementary,96080-8871,40.184823,-122.17795,Red Bluff,California,96080
0604590,604590,Bend Elementary,96080-9642,40.262494,-122.20492,Red Bluff,California,96080
0609780,609780,Corning Union Elementary,96021-2934,39.925989,-122.18683,Corning,California,96021
0609810,609810,Corning Union High,96021-2216,39.935147,-122.17251,Corning,California,96021
0612420,612420,Elkins Elementary,96074-0407,39.885800,-122.55350,Paskenta,California,96074
0613170,613170,Evergreen Union,96022-9649,40.358122,-122.33008,Cottonwood,California,96022
0613860,613860,Flournoy Union Elementary,96029-2260,39.884715,-122.54461,Flournoy,California,96029
0615090,615090,Gerber Union Elementary,96035-9708,40.069134,-122.18920,Gerber,California,96035
0619860,619860,Kirkwood Elementary,96021-9719,39.903024,-122.17861,Corning,California,96021
0621090,621090,Lassen View Union Elementary,96055-9625,40.109129,-122.11132,Los Molinos,California,96055
0622860,622860,Los Molinos Unified,96055-9801,40.025036,-122.09988,Los Molinos,California,96055
0623670,623670,Manton Joint Union Elementary,96059-0410,40.420732,-121.81178,Manton,California,96059
0625020,625020,Mineral Elementary,96063-0130,40.346080,-121.59754,Mineral,California,96063
0631140,631140,Plum Valley Elementary,96075-9703,40.311645,-121.89567,Paynes Creek,California,96075
0631980,631980,Red Bluff Union Elementary,96080-4514,40.178489,-122.23583,Red Bluff,California,96080
0632010,632010,Red Bluff Joint Union High,96080-2599,40.178280,-122.25062,Red Bluff,California,96080
0632250,632250,Reeds Creek Elementary,96080-9467,40.150337,-122.47547,Red Bluff,California,96080
0632400,632400,Richfield Elementary,96021-9771,39.975148,-122.14703,Corning,California,96021
0600146,600146,Tehama County ROP,96080,40.178464,-122.24573,Red Bluff,California,96080
0691044,691044,Trinity County Office of Education,96093-1256,40.739640,-122.94778,Weaverville,California,96093
0606510,606510,Burnt Ranch Elementary,95527-0039,40.809100,-123.47960,Burnt Ranch,California,95527
0609240,609240,Coffee Creek Elementary,96091-9503,41.085680,-122.71299,Coffee Creek,California,96091
0610080,610080,Cox Bar Elementary,96010-0529,40.737100,-123.25440,Big Bar,California,96010
0611430,611430,Douglas City Elementary,96024-0280,40.653100,-122.94400,Douglas City,California,96024
0619170,619170,Junction City Elementary,96048-9765,40.750000,-123.08730,Junction City,California,96048
0621480,621480,Lewiston Elementary,96052-9676,40.699820,-122.81319,Lewiston,California,96052
0639750,639750,Trinity Center Elementary,96091-0127,40.983000,-122.70620,Trinity Center,California,96091
0639800,639800,Trinity Union High,96093,No Data,No Data,Weaverville,California,96093
0641910,641910,Weaverville Elementary,96093-1000,No Data,No Data,Weaverville,California,96093
0637630,637630,Southern Trinity Joint Unified,95526-9511,40.455840,-123.52811,Mad River,California,95526
0600018,600018,Mountain Valley Unified,96041-0339,40.551100,-123.17190,Hayfork,California,96041
0601331,601331,Trinity Alps Unified,96093,40.739348,-122.94754,Weaverville,California,96093
0691045,691045,Tulare County Office of Education,93277,36.274333,-119.31143,Visalia,California,93277
0601980,601980,Allensworth Elementary,93219-9709,35.864487,-119.39068,Allensworth,California,93219
0602010,602010,Alpaugh Unified,93201-0009,35.886200,-119.48497,Alpaugh,California,93201
0602220,602220,Alta Vista Elementary,93257-5225,36.058648,-118.96618,Porterville,California,93257
0606420,606420,Buena Vista Elementary,93274-9470,36.182885,-119.43912,Tulare,California,93274
0606570,606570,Burton Elementary,93257-2542,36.070911,-119.07076,Porterville,California,93257
0608730,608730,Citrus South Tule Elementary,93257-9638,36.080061,-118.88327,Porterville,California,93257
0609510,609510,Columbine Elementary,93215-9420,35.814548,-119.21459,Delano,California,93215
0610350,610350,Cutler-Orosi Joint Unified,93647-2008,36.544731,-119.29093,Orosi,California,93647
0611550,611550,Ducor Union Elementary,93218-0249,35.891200,-119.04090,Ducor,California,93218
0611760,611760,Earlimart Elementary,93219-1970,35.885790,-119.27029,Earlimart,California,93219
0613200,613200,Exeter Union Elementary,93221,36.295703,-119.14055,Exeter,California,93221
0613230,613230,Exeter Union High,93221,36.295703,-119.14055,Exeter,California,93221
0617520,617520,Hope Elementary,93110-1563,34.444227,-119.75391,Santa Barbara,California,93110
0617640,617640,Hot Springs Elementary,93207-2997,35.863808,-118.79129,California Hot Springs,California,93207
0619740,619740,Kings River Union Elementary,93631-9660,36.517643,-119.48599,Kingsburg,California,93631
0621570,621570,Liberty Elementary,94952,38.281953,-122.70749,Petaluma,California,94952
0621870,621870,Lindsay Unified,93247-2172,36.206209,-119.08804,Lindsay,California,93247
0625350,625350,Monson-Sultana Joint Union Elementary,93666,36.544724,-119.33361,Sultana,California,93666
0627900,627900,Oak Valley Union Elementary,93274-9607,36.233325,-119.42044,Tulare,California,93274
0629160,629160,Outside Creek Elementary,93292-9740,36.263815,-119.20698,Visalia,California,93292
0629670,629670,Palo Verde Union Elementary,93274-9529,36.145528,-119.35100,Tulare,California,93274
0630630,630630,Pixley Union Elementary,93256-1016,35.973455,-119.28172,Pixley,California,93256
0631050,631050,Pleasant View Elementary,93257-9214,36.043624,-119.16128,Porterville,California,93257
0632430,632430,Richgrove Elementary,93261-0540,35.799920,-119.10677,Richgrove,California,93261
0633270,633270,Rockford Elementary,93257-9318,36.061320,-119.10755,Porterville,California,93257
0635940,635940,Saucelito Elementary,93270-9798,35.978827,-119.17831,Terra Bella,California,93270
0636360,636360,Sequoia Union Elementary,93244,36.375500,-119.03620,Lemon Cove,California,93244
0637770,637770,Springville Union Elementary,93265-0349,36.129439,-118.82279,Springville,California,93265
0638040,638040,Stone Corral Elementary,93292-9545,36.484109,-119.22685,Visalia,California,93292
0638130,638130,Strathmore Union Elementary,93267-0247,36.150856,-119.06335,Strathmore,California,93267
0638160,638160,Strathmore Union High,93267-0114,No Data,No Data,Strathmore,California,93267
0638340,638340,Sundale Union Elementary,93274-9563,36.225799,-119.26176,Tulare,California,93274
0638430,638430,Sunnyside Union Elementary,93267-9795,36.145495,-119.08844,Strathmore,California,93267
0639060,639060,Terra Bella Union Elementary,93270-9423,35.955321,-119.03611,Terra Bella,California,93270
0639210,639210,Three Rivers Union Elementary,93271-0099,36.424838,-118.91555,Three Rivers,California,93271
0639300,639300,Tipton Elementary,93272-9400,36.062028,-119.31024,Tipton,California,93272
0639600,639600,Traver Joint Elementary,93673-0069,36.457570,-119.48227,Traver,California,93673
0639870,639870,Tulare City,93274-2920,36.216771,-119.33760,Tulare,California,93274
0639930,639930,Tulare Joint Union High,93274-4449,36.213079,-119.33094,Tulare,California,93274
0641160,641160,Visalia Unified,93277-8300,36.323742,-119.34638,Visalia,California,93277
0641820,641820,Waukena Joint Union Elementary,93274-8924,36.136754,-119.50982,Tulare,California,93274
0643020,643020,Woodlake Union Elementary,93286-1238,36.419142,-119.09619,Woodlake,California,93286
0643050,643050,Woodlake Union High,93286-1238,36.419142,-119.09619,Woodlake,California,93286
0643170,643170,Woodville Union Elementary,93257-9205,36.091129,-119.19674,Porterville,California,93257
0600147,600147,Tulare County Organization for Vocational Education,93257-2029,36.076871,-119.03054,Porterville,California,93257
0600035,600035,Farmersville Unified,93223-1274,36.307500,-119.21200,Farmersville,California,93223
0600064,600064,Porterville Unified,93257-2029,36.076871,-119.03054,Porterville,California,93257
0600065,600065,Dinuba Unified,93618-1800,36.546098,-119.41060,Dinuba,California,93618
0601418,601418,Woodlake Unified,93286-1238,36.419200,-119.10129,Woodlake,California,93286
0601423,601423,Exeter Unified,93221-1303,36.299675,-119.13250,Exeter,California,93221
0691046,691046,Tuolumne County Superintendent of Schools,95370-4809,37.978511,-120.39091,Sonora,California,95370
0604500,604500,Belleview Elementary,95370-8331,38.033789,-120.27164,Sonora,California,95370
0608430,608430,Chinese Camp Elementary,95309-0100,No Data,No Data,Chinese Camp,California,95309
0609480,609480,Columbia Union,95310-9757,38.043019,-120.44662,Columbia,California,95310
0610320,610320,Curtis Creek Elementary,95370-7542,37.959951,-120.31071,Sonora,California,95370
0618690,618690,Jamestown Elementary,95327-9671,37.954207,-120.41798,Jamestown,California,95327
0637230,637230,Sonora Elementary,95370-5203,37.979274,-120.36912,Sonora,California,95370
0637260,637260,Sonora Union High,95370-5680,38.003699,-120.40136,Sonora,California,95370
0637320,637320,Soulsbyville Elementary,95372-9792,37.991851,-120.26409,Soulsbyville,California,95372
0638250,638250,Summerville Elementary,95379-9715,37.957544,-120.23631,Tuolumne,California,95379
0638280,638280,Summerville Union High,95379-9701,37.964726,-120.24444,Tuolumne,California,95379
0640200,640200,Twain Harte,95383-9517,38.040229,-120.22850,Twain Harte,California,95383
0691137,691137,Big Oak Flat-Groveland Unified,95321,37.820110,-120.30591,Groveland,California,95321
0691047,691047,Ventura County Office of Education,93012-8603,34.214001,-118.99964,Camarillo,California,93012
0606030,606030,Briggs Elementary,93036-3088,34.328592,-119.14112,Santa Paula,California,93036
0613800,613800,Fillmore Unified,93015-1918,34.400687,-118.91705,Fillmore,California,93015
0617850,617850,Hueneme Elementary,93041-3065,34.149127,-119.19563,Port Hueneme,California,93041
0624720,624720,Mesa Union Elementary,93066-9734,34.262484,-119.09424,Somis,California,93066
0626460,626460,Mupu Elementary,93060-9681,34.385019,-119.07104,Santa Paula,California,93060
0628170,628170,Ocean View,92647-5569,33.711518,-118.02163,Huntington Beach,California,92647
0628270,628270,Ojai Unified,93023-2819,34.445128,-119.25368,Ojai,California,93023
0629220,629220,Oxnard,93030-7442,34.190707,-119.17873,Oxnard,California,93030
0629270,629270,Oxnard Union High,93030-5212,34.217384,-119.14369,Oxnard,California,93030
0630990,630990,Pleasant Valley,93010-4835,34.223481,-119.03024,Camarillo,California,93010
0632760,632760,Rio Elementary,93030-2655,34.217384,-119.14369,Oxnard,California,93030
0635490,635490,Santa Clara Elementary,93060-9691,34.376262,-119.00132,Santa Paula,California,93060
0635730,635730,Santa Paula Elementary,93060-3244,34.345507,-119.07895,Santa Paula,California,93060
0635760,635760,Santa Paula Union High,93060-2633,34.352919,-119.06922,Santa Paula,California,93060
0636840,636840,Simi Valley Unified,93065-1934,34.284180,-118.79994,Simi Valley,California,93065
0637140,637140,Somis Union,93066-9531,34.258820,-118.99756,Somis,California,93066
0640980,640980,Ventura Unified,93001-1348,34.300362,-119.29911,Ventura,California,93001
0609640,609640,Conejo Valley Unified,91362-2133,34.199453,-118.85260,Thousand Oaks,California,91362
0627850,627850,Oak Park Unified,91377-1002,34.171555,-118.76479,Oak Park,California,91377
0625690,625690,Moorpark Unified,93021-1862,34.281697,-118.89604,Moorpark,California,93021
0600148,600148,Ventura County ROP,93012,34.214514,-118.99941,Camarillo,California,93012
0601421,601421,Santa Paula Unified,93060-3244,34.345894,-119.07828,Santa Paula,California,93060
0691049,691049,Yolo County Office of Education,95776-6127,38.696283,-121.75759,Woodland,California,95776
0610620,610620,Davis Joint Unified,95616-3811,38.546867,-121.74545,Davis,California,95616
0612930,612930,Esparto Unified,95627-2192,38.691545,-122.01615,Esparto,California,95627
0641580,641580,Washington Unified,93706-9283,36.620238,-119.78996,Fresno,California,93706
0642930,642930,Winters Joint Unified,95694-1646,38.519943,-121.98491,Winters,California,95694
0643080,643080,Woodland Joint Unified,95695-4109,38.676253,-121.76717,Woodland,California,95695
0600149,600149,Yolo County ROP,95776,38.695187,-121.75772,Woodland,California,95776
0601413,601413,"SBE - California College, Career & Technical Education Center",95691,38.586677,-121.56438,West Sacramento,California,95691
0691048,691048,Yuba County Office of Education,95901-4149,39.149799,-121.59839,Marysville,California,95901
0607260,607260,Camptonville Elementary,95922-0278,39.453388,-121.04763,Camptonville,California,95922
0624090,624090,Marysville Joint Unified,95901-3731,39.101047,-121.39497,Marysville,California,95901
0631180,631180,Plumas Lake Elementary,95961-8827,39.027400,-121.51570,Plumas Lake,California,95961
0642330,642330,Wheatland,95692-0818,39.013999,-121.41906,Wheatland,California,95692
0642350,642350,Wheatland Union High,95692-9798,38.998968,-121.45497,Wheatland,California,95692
20570,20570,,,,,,,